{"version": 0.6, "generator": "Overpass API 0.7.62.7 375dc00a", "osm3s": {"timestamp_osm_base": "2025-07-03T19:15:20Z", "copyright": "The data included in this document is from www.openstreetmap.org. The data is made available under ODbL."}, "elements": [{"type": "node", "id": 25531623, "lat": 51.5047634, "lon": -0.2184386, "tags": {"bicycle": "no", "name": "Shepherd's Bush (Central Line)", "railway": "subway_entrance", "wheelchair": "no"}}, {"type": "node", "id": 129879246, "lat": 51.5435796, "lon": -0.1756725, "tags": {"level": "-0.5", "name": "Swiss Cottage Exit 4&5", "railway": "subway_entrance", "wheelchair": "no"}}, {"type": "node", "id": 130113776, "lat": 51.4990353, "lon": -0.1353083, "tags": {"check_date:wheelchair": "2022-03-12", "entrance": "yes", "entrance_marker:subway": "yes", "railway": "subway_entrance", "wheelchair": "no"}}, {"type": "node", "id": 133043403, "lat": 51.5252217, "lon": -0.0334143, "tags": {"level": "0", "name": "Mile End", "railway": "subway_entrance", "wheelchair": "no"}}, {"type": "node", "id": 133190031, "lat": 51.5219245, "lon": -0.0466194, "tags": {"name": "Stepney Green", "railway": "subway_entrance", "wheelchair": "yes"}}, {"type": "node", "id": 166860072, "lat": 51.5153066, "lon": -0.0721135, "tags": {"comment": "Replacing ref=A with ref=1. Adding ref:GB:tfl_uid which makes reference to TfL AreaName: A-W/C.", "entrance_marker:subway": "yes", "level": "0", "name": "Aldgate East, Exit 2, High Street (north side), Toynbee Hall, Petticoat Lane Market", "railway": "subway_entrance", "ref": "2", "ref:GB:tfl_uid": "940GZZLUADE-1000004-A-W/C-4", "wheelchair": "no"}}, {"type": "node", "id": 169454966, "lat": 51.4965421, "lon": -0.1438618, "tags": {"entrance": "yes", "entrance_marker:subway": "yes", "railway": "subway_entrance", "wheelchair": "no"}}, {"type": "node", "id": 169481647, "lat": 51.4957501, "lon": -0.1434249, "tags": {"railway": "subway_entrance", "wheelchair": "no"}}, {"type": "node", "id": 169481648, "lat": 51.4957727, "lon": -0.1438661, "tags": {"check_date:wheelchair": "2024-04-17", "railway": "subway_entrance", "wheelchair": "no"}}, {"type": "node", "id": 169481934, "lat": 51.4962589, "lon": -0.143978, "tags": {"entrance": "yes", "entrance_marker:subway": "yes", "railway": "subway_entrance", "wheelchair": "no"}}, {"type": "node", "id": 186186683, "lat": 51.5584284, "lon": -0.1056554, "tags": {"entrance": "main", "level": "0", "name": "Arsenal", "railway": "subway_entrance", "ref": "A", "wheelchair": "no", "wikidata": "Q262548", "wikipedia": "en:Arsenal tube station"}}, {"type": "node", "id": 242685620, "lat": 51.5712136, "lon": -0.1174083, "tags": {"railway": "subway_entrance", "wheelchair": "no"}}, {"type": "node", "id": 242936414, "lat": 51.4993493, "lon": -0.314134, "tags": {"name": "Northfields", "railway": "subway_entrance", "wheelchair": "no"}}, {"type": "node", "id": 245955904, "lat": 51.4618044, "lon": -0.1150398, "tags": {"railway": "subway_entrance", "wheelchair": "yes"}}, {"type": "node", "id": 256508646, "lat": 51.4947617, "lon": -0.2452156, "tags": {"level": "0", "railway": "subway_entrance"}}, {"type": "node", "id": 269236112, "lat": 51.5564725, "lon": -0.0056656, "tags": {"check_date:wheelchair": "2023-01-08", "railway": "subway_entrance", "wheelchair": "no"}}, {"type": "node", "id": 273210311, "lat": 51.4889078, "lon": -0.1336115, "tags": {"railway": "subway_entrance"}}, {"type": "node", "id": 281608544, "lat": 51.4977312, "lon": -0.1740669, "tags": {"name": "South Kensington", "railway": "subway_entrance", "wheelchair": "no"}}, {"type": "node", "id": 291913900, "lat": 51.5134333, "lon": -0.0881305, "tags": {"access": "no", "level": "0", "name": "Bank station, Exit 4", "railway": "subway_entrance", "ref": "4"}}, {"type": "node", "id": 295818161, "lat": 51.5260014, "lon": -0.0879301, "tags": {"name": "Old Street - Exit 4", "railway": "subway_entrance", "ref": "4", "wheelchair": "yes"}}, {"type": "node", "id": 302013869, "lat": 51.5049416, "lon": -0.0901077, "tags": {"name": "Borough High Street (West)", "railway": "subway_entrance", "station": "London Bridge", "wheelchair": "no"}}, {"type": "node", "id": 308426708, "lat": 51.5099861, "lon": -0.2244324, "tags": {"entrance": "yes", "entrance_marker:subway": "yes", "level": "0", "name": "Wood Lane", "railway": "subway_entrance", "ref": "A", "wheelchair": "yes"}}, {"type": "node", "id": 356071892, "lat": 51.5004024, "lon": 0.0037638, "tags": {"entrance": "yes", "level": "0", "railway": "subway_entrance", "wheelchair": "yes"}}, {"type": "node", "id": 452514295, "lat": 51.5082657, "lon": -0.1256766, "tags": {"description": "Northumberland Avenue", "name": "Charing Cross (Exit 5)", "railway": "subway_entrance", "ref": "5", "wheelchair": "no"}}, {"type": "node", "id": 469759899, "lat": 51.5160514, "lon": -0.0700265, "tags": {"entrance_marker:subway": "yes", "level": "0", "name": "Aldgate East", "railway": "subway_entrance", "ref": "B", "ref:GB:tfl_uid": "940GZZLUADE-1000004-B-W-N-13", "wheelchair": "no"}}, {"type": "node", "id": 473266999, "lat": 51.5121282, "lon": -0.1039294, "tags": {"railway": "subway_entrance", "ref": "1"}}, {"type": "node", "id": 473267531, "lat": 51.5118618, "lon": -0.1043698, "tags": {"railway": "subway_entrance", "ref": "8"}}, {"type": "node", "id": 475381373, "lat": 51.5158057, "lon": -0.0699691, "tags": {"entrance_marker:subway": "yes", "level": "0", "name": "Aldgate East", "railway": "subway_entrance", "ref": "C", "ref:GB:tfl_uid": "940GZZLUADE-1000004-C-W-S-12", "wheelchair": "no"}}, {"type": "node", "id": 506327775, "lat": 51.5037816, "lon": -0.1138348, "tags": {"name": "Waterloo Bridge", "railway": "subway_entrance", "ref": "5"}}, {"type": "node", "id": 560717337, "lat": 51.51344, "lon": -0.0902804, "tags": {"bicycle": "no", "level": "0", "name": "Bank station, Exit G", "railway": "subway_entrance", "ref": "G", "wheelchair": "no"}}, {"type": "node", "id": 562730480, "lat": 51.5646328, "lon": -0.1058619, "tags": {"entrance": "yes", "network": "National Rail", "railway": "subway_entrance"}}, {"type": "node", "id": 562730483, "lat": 51.5644846, "lon": -0.1058835, "tags": {"network": "London Underground", "railway": "subway_entrance", "wheelchair": "yes"}}, {"type": "node", "id": 587959213, "lat": 51.5011521, "lon": -0.12374, "tags": {"railway": "subway_entrance", "ref": "1", "wheelchair": "yes"}}, {"type": "node", "id": 601141522, "lat": 51.5225141, "lon": -0.1567647, "tags": {"railway": "subway_entrance", "wheelchair": "no"}}, {"type": "node", "id": 659654477, "lat": 51.5153979, "lon": -0.1422163, "tags": {"check_date:wheelchair": "2024-10-23", "name": "Exit 4, Oxford Street / Regent Street (North-West)", "railway": "subway_entrance", "ref": "4", "wheelchair": "no"}}, {"type": "node", "id": 659654478, "lat": 51.5152436, "lon": -0.1414913, "tags": {"access": "no", "entrance": "exit", "name": "Exit 5, Oxford Street", "note": "exit only", "railway": "subway_entrance", "ref": "5", "wheelchair": "no"}}, {"type": "node", "id": 659654479, "lat": 51.5151875, "lon": -0.1417613, "tags": {"check_date:wheelchair": "2023-07-16", "name": "Exit 2, Oxford Street / Regent Street (South-East)", "railway": "subway_entrance", "ref": "2", "wheelchair": "no"}}, {"type": "node", "id": 659654480, "lat": 51.5154363, "lon": -0.1418861, "tags": {"check_date:wheelchair": "2024-10-23", "name": "Exit 1, Oxford Street / Regent Street (North-East)", "railway": "subway_entrance", "ref": "1", "wheelchair": "no"}}, {"type": "node", "id": 659654481, "lat": 51.5151325, "lon": -0.1421653, "tags": {"check_date:wheelchair": "2024-10-23", "name": "Exit 3, Oxford Street / Regent Street (South-West)", "railway": "subway_entrance", "ref": "3", "wheelchair": "no"}}, {"type": "node", "id": 659654482, "lat": 51.5150368, "lon": -0.1409834, "tags": {"access": "no", "entrance": "exit", "name": "Exit 8, Argyll Street", "note": "exit only", "railway": "subway_entrance", "ref": "8", "wheelchair": "no"}}, {"type": "node", "id": 659654483, "lat": 51.515295, "lon": -0.1410174, "tags": {"access": "no", "entrance": "exit", "name": "Exit 7, Oxford St / Argyll St", "note": "exit only", "railway": "subway_entrance", "ref": "7", "wheelchair": "no"}}, {"type": "node", "id": 659654484, "lat": 51.515256, "lon": -0.1411282, "tags": {"access": "no", "entrance": "exit", "name": "Exit 6, Oxford Street / Argyll Street", "note": "exit only", "railway": "subway_entrance", "ref": "6", "wheelchair": "no"}}, {"type": "node", "id": 734984839, "lat": 51.511857, "lon": -0.1574149, "tags": {"railway": "subway_entrance", "ref": "6"}}, {"type": "node", "id": 759818258, "lat": 51.5704752, "lon": -0.0960327, "tags": {"railway": "subway_entrance", "wheelchair": "no"}}, {"type": "node", "id": 759818259, "lat": 51.5704378, "lon": -0.095869, "tags": {"railway": "subway_entrance", "wheelchair": "no"}}, {"type": "node", "id": 759818269, "lat": 51.5705849, "lon": -0.0956355, "tags": {"railway": "subway_entrance", "wheelchair": "no"}}, {"type": "node", "id": 759818277, "lat": 51.5710567, "lon": -0.0960258, "tags": {"railway": "subway_entrance", "wheelchair": "no"}}, {"type": "node", "id": 799284557, "lat": 51.5065401, "lon": -0.1428968, "tags": {"railway": "subway_entrance"}}, {"type": "node", "id": 812150818, "lat": 51.5515316, "lon": -0.2393409, "tags": {"name": "Dollis Hill", "railway": "subway_entrance"}}, {"type": "node", "id": 812150828, "lat": 51.5522512, "lon": -0.2389469, "tags": {"name": "Dollis Hill", "railway": "subway_entrance", "wheelchair": "no"}}, {"type": "node", "id": 821849117, "lat": 51.5029609, "lon": -0.1517569, "tags": {"level": "0", "name": "Hyde Park Corner", "railway": "subway_entrance", "ref": "C", "wheelchair": "no"}}, {"type": "node", "id": 826724221, "lat": 51.5085978, "lon": -0.1246137, "tags": {"description": "Villiers Street", "name": "Charing Cross (Exit 2)", "railway": "subway_entrance", "ref": "2", "wheelchair": "no"}}, {"type": "node", "id": 841529954, "lat": 51.5091893, "lon": -0.1961468, "tags": {"bicycle": "no", "level": "0", "name": "Notting Hill Gate", "railway": "subway_entrance", "ref": "4", "wheelchair": "no"}}, {"type": "node", "id": 841529957, "lat": 51.5089845, "lon": -0.1962088, "tags": {"bicycle": "no", "level": "0", "name": "Notting Hill Gate", "railway": "subway_entrance", "ref": "1", "wheelchair": "no"}}, {"type": "node", "id": 841529958, "lat": 51.5091176, "lon": -0.1966106, "tags": {"bicycle": "no", "level": "0", "name": "Notting Hill Gate", "railway": "subway_entrance", "ref": "3", "wheelchair": "no"}}, {"type": "node", "id": 841529967, "lat": 51.5089344, "lon": -0.1965321, "tags": {"bicycle": "no", "level": "0", "name": "Notting Hill Gate", "railway": "subway_entrance", "ref": "2", "wheelchair": "no"}}, {"type": "node", "id": 847744579, "lat": 51.571096, "lon": -0.1171261, "tags": {"railway": "subway_entrance", "wheelchair": "no"}}, {"type": "node", "id": 850451674, "lat": 51.5176025, "lon": -0.1199771, "tags": {"level": "0", "name": "Holborn", "railway": "subway_entrance", "ref": "B", "wheelchair": "no"}}, {"type": "node", "id": 861334642, "lat": 51.5350509, "lon": -0.1936894, "tags": {"bicycle": "no", "level": "0", "name": "Kilburn Park", "railway": "subway_entrance", "wheelchair": "no"}}, {"type": "node", "id": 861357344, "lat": 51.5341965, "lon": -0.204615, "tags": {"bicycle": "dismount", "bicycle:conditional": "no @ (Mo-Fr 07:30-09:30,16:00-19:00 AND folded=no)", "entrance": "main", "railway": "subway_entrance", "wheelchair": "no"}}, {"type": "node", "id": 909319724, "lat": 51.5305206, "lon": -0.2253476, "tags": {"bicycle": "dismount", "bicycle:conditional": "no @ (Mo-Fr 07:30-09:30,16:00-19:00 AND folded=no)", "railway": "subway_entrance", "wheelchair": "no"}}, {"type": "node", "id": 911189370, "lat": 51.5304091, "lon": -0.1237367, "tags": {"entrance": "yes", "level": "0", "note": "revert changeset 54488428", "railway": "subway_entrance", "wheelchair": "yes", "wheelchair:description": "Lift at the right hand side of the stairwell goes between street level, ticket hall (Level -1) and barrier level (Level -2)."}}, {"type": "node", "id": 911189405, "lat": 51.5301786, "lon": -0.1232804, "tags": {"check_date:wheelchair": "2022-05-19", "level": "0", "railway": "subway_entrance", "wheelchair": "no"}}, {"type": "node", "id": 914438342, "lat": 51.5056444, "lon": -0.1138314, "tags": {"railway": "subway_entrance", "ref": "4"}}, {"type": "node", "id": 914501370, "lat": 51.5038094, "lon": -0.104817, "tags": {"description": "Entrance to Southwark tube station", "entrance": "yes", "level": "0", "railway": "subway_entrance", "wheelchair": "yes"}}, {"type": "node", "id": 926239878, "lat": 51.4859385, "lon": -0.1237984, "tags": {"railway": "subway_entrance", "ref": "2", "wheelchair": "yes"}}, {"type": "node", "id": 931633008, "lat": 51.5393697, "lon": -0.142815, "tags": {"addr:city": "London", "addr:housenumber": "201", "addr:postcode": "NW1 7BT", "addr:street": "Camden High Street", "brand": "Superdrug", "brand:wikidata": "Q7643261", "brand:wikipedia": "en:Superdrug", "fhrs:id": "425589", "name": "Superdrug;Camden Town", "railway": "subway_entrance", "shop": "chemist", "source:addr": "FSA Food Hygiene Rating Scheme open data", "wheelchair": "yes;no"}}, {"type": "node", "id": 1039290561, "lat": 51.5171863, "lon": -0.0830154, "tags": {"destination": "Arcade", "name": "Old Broad Street", "railway": "subway_entrance", "wheelchair": "no"}}, {"type": "node", "id": 1048410592, "lat": 51.5098426, "lon": -0.0763965, "tags": {"name": "Tower Hill", "railway": "subway_entrance", "wheelchair": "yes", "wheelchair:description": "Step-free access by lift to terminating and westbound platforms. Use signposted route to other entrance for eastbound & Circle via Liverpool Street."}}, {"type": "node", "id": 1090774431, "lat": 51.4652479, "lon": -0.1708296, "tags": {"name": "Clapham Junction Grant Road", "railway": "subway_entrance", "wheelchair": "yes"}}, {"type": "node", "id": 1102565750, "lat": 51.5258153, "lon": -0.1357746, "tags": {"check_date:wheelchair": "2023-07-24", "level": "0", "name": "Euston Square", "name:ru": "\u041f\u043b\u043e\u0449\u0430\u0434\u044c \u042e\u0441\u0442\u043e\u043d", "network": "London Underground", "railway": "subway_entrance", "ref": "B", "wheelchair": "no"}}, {"type": "node", "id": 1153505339, "lat": 51.4634803, "lon": -0.1689629, "tags": {"name": "Clapham Junction St John's Hill", "railway": "subway_entrance"}}, {"type": "node", "id": 1154677921, "lat": 51.5810213, "lon": 0.0216239, "tags": {"description:en": "Entrance to Central Line Eastbound Platform 2. To reach this entrance from the platform, follow signs for: High Street (north side),Woodford Road. Use overpass over main road.", "railway": "subway_entrance"}}, {"type": "node", "id": 1154677974, "lat": 51.5810543, "lon": 0.0215137, "tags": {"description:en": "Entrance to Central Line Eastbound Platform 2. To reach this entrance from the platform, follow signs for High Street (south side), Woodford Road, Snaresbrook Crown Court.", "railway": "subway_entrance"}}, {"type": "node", "id": 1155201774, "lat": 51.5011621, "lon": -0.0935439, "tags": {"railway": "subway_entrance", "wheelchair": "limited"}}, {"type": "node", "id": 1169725686, "lat": 51.4939971, "lon": -0.1742004, "tags": {"name": "South Kensington", "railway": "subway_entrance", "wheelchair": "no", "wheelchair:description": "Steps only from Arcade to platform level and subway to museums"}}, {"type": "node", "id": 1226713873, "lat": 51.5140434, "lon": -0.1491532, "tags": {"entrance": "yes", "railway": "subway_entrance"}}, {"type": "node", "id": 1227938903, "lat": 51.5098918, "lon": -0.1340943, "tags": {"check_date:wheelchair": "2022-05-30", "name": "Piccadilly Circus", "railway": "subway_entrance", "ref": "4", "smoking": "no", "source:wheelchair": "survey", "wheelchair": "no"}}, {"type": "node", "id": 1227938921, "lat": 51.5101107, "lon": -0.1341094, "tags": {"check_date:wheelchair": "2022-04-16", "name": "Piccadilly Circus", "railway": "subway_entrance", "ref": "4", "source:wheelchair": "survey", "wheelchair": "no"}}, {"type": "node", "id": 1227938928, "lat": 51.5096076, "lon": -0.1345233, "tags": {"name": "Piccadilly Circus", "railway": "subway_entrance", "ref": "3", "wheelchair": "no"}}, {"type": "node", "id": 1227938942, "lat": 51.509557, "lon": -0.1347621, "tags": {"name": "Piccadilly Circus", "railway": "subway_entrance", "ref": "3", "source:wheelchair": "survey", "wheelchair": "no"}}, {"type": "node", "id": 1271712918, "lat": 51.5177298, "lon": -0.0811754, "tags": {"entrance_marker:subway": "yes", "level": "-1", "note": "Access to Central Line", "railway": "subway_entrance", "wheelchair": "no"}}, {"type": "node", "id": 1274040743, "lat": 51.5085537, "lon": -0.1259455, "tags": {"railway": "subway_entrance", "ref": "6", "wheelchair": "no"}}, {"type": "node", "id": 1274040746, "lat": 51.5087346, "lon": -0.1248549, "tags": {"description": "Strand (south side)", "name": "Charing Cross (Exit 1)", "railway": "subway_entrance", "ref": "1"}}, {"type": "node", "id": 1274040750, "lat": 51.5078204, "lon": -0.1273055, "tags": {"level": "0", "railway": "subway_entrance", "wheelchair": "no"}}, {"type": "node", "id": 1287703199, "lat": 51.4891048, "lon": -0.1329773, "tags": {"railway": "subway_entrance", "wheelchair": "yes"}}, {"type": "node", "id": 1288249464, "lat": 51.5184769, "lon": -0.0882457, "tags": {"name": "Moorgate (west side)", "railway": "subway_entrance", "ref": "2", "toilets:wheelchair": "no", "wheelchair": "no"}}, {"type": "node", "id": 1321785861, "lat": 51.4953938, "lon": -0.1734355, "tags": {"check_date:wheelchair": "2024-03-31", "name": "South Kensington", "railway": "subway_entrance", "wheelchair": "no", "wheelchair:description": "Steps only from street level to subway to museums and station"}}, {"type": "node", "id": 1322528502, "lat": 51.5414329, "lon": -0.0027068, "tags": {"railway": "subway_entrance"}}, {"type": "node", "id": 1390303296, "lat": 51.5177725, "lon": -0.082344, "tags": {"entrance": "yes", "railway": "subway_entrance", "wheelchair": "yes"}}, {"type": "node", "id": 1401459404, "lat": 51.5104525, "lon": -0.0859883, "tags": {"check_date:wheelchair": "2024-06-18", "level": "0", "name": "Fish Street Hill", "railway": "subway_entrance", "ref": "A", "wheelchair": "no"}}, {"type": "node", "id": 1402066827, "lat": 51.5140935, "lon": -0.0755249, "tags": {"bicycle": "yes", "name": "Aldgate", "railway": "subway_entrance", "wheelchair": "no"}}, {"type": "node", "id": 1406969070, "lat": 51.4022596, "lon": -0.1947328, "tags": {"name": "Station Entrance", "railway": "subway_entrance"}}, {"type": "node", "id": 1422925294, "lat": 51.5721058, "lon": -0.1944435, "tags": {"railway": "subway_entrance"}}, {"type": "node", "id": 1436218816, "lat": 51.5016202, "lon": -0.1605201, "tags": {"level": "0", "name": "Knightsbridge", "railway": "subway_entrance", "ref": "D", "wheelchair": "no"}}, {"type": "node", "id": 1436229643, "lat": 51.5162263, "lon": -0.1766741, "tags": {"level": "0", "name": "Paddington (Bakerloo, Circle and District lines)", "railway": "subway_entrance"}}, {"type": "node", "id": 1468597204, "lat": 51.5639412, "lon": -0.1295461, "tags": {"railway": "subway_entrance", "wheelchair": "yes"}}, {"type": "node", "id": 1468597206, "lat": 51.5637562, "lon": -0.1289701, "tags": {"railway": "subway_entrance", "wheelchair": "yes"}}, {"type": "node", "id": 1492770154, "lat": 51.5317227, "lon": -0.1272603, "tags": {"entrance": "yes", "naptan:AtcoCode": "4900STPXBOX3", "naptan:CommonName": "St Pancras International Station", "naptan:Indicator": "Entrance", "naptan:StopType": "RSE", "railway": "subway_entrance", "wheelchair": "yes"}}, {"type": "node", "id": 1508498094, "lat": 51.4902844, "lon": -0.2133495, "tags": {"level": "0", "name": "Barons Court", "railway": "subway_entrance", "wheelchair": "no"}}, {"type": "node", "id": 1525365546, "lat": 51.5119523, "lon": -0.2246847, "tags": {"name": "White City", "railway": "subway_entrance"}}, {"type": "node", "id": 1530391823, "lat": 51.4933236, "lon": -0.2243279, "tags": {"level": "0", "name": "Hammersmith (Circle and Hammersmith & City lines)", "railway": "subway_entrance", "wheelchair": "yes"}}, {"type": "node", "id": 1530391837, "lat": 51.4935139, "lon": -0.2246021, "tags": {"level": "0", "name": "Hammersmith (Circle and Hammersmith & City lines)", "railway": "subway_entrance", "wheelchair": "yes"}}, {"type": "node", "id": 1558429812, "lat": 51.490573, "lon": -0.2065713, "tags": {"railway": "subway_entrance"}}, {"type": "node", "id": 1567761340, "lat": 51.5116031, "lon": -0.1279341, "tags": {"entrance_marker:subway": "yes", "name": "Leicester Square", "railway": "subway_entrance", "ref": "4", "source:name": "survey", "source:railway": "survey", "source:wheelchair": "survey", "wheelchair": "no"}}, {"type": "node", "id": 1567842127, "lat": 51.5114858, "lon": -0.1285331, "tags": {"entrance_marker:subway": "yes", "name": "Leicester Square", "railway": "subway_entrance", "ref": "2", "source:railway": "survey", "source:wheelchair": "survey", "wheelchair": "no"}}, {"type": "node", "id": 1567842141, "lat": 51.5112748, "lon": -0.1282408, "tags": {"check_date:wheelchair": "2022-05-30", "entrance_marker:subway": "yes", "name": "Leicester Square", "railway": "subway_entrance", "ref": "1", "source:name": "survey", "source:railway": "survey", "source:wheelchair": "survey", "wheelchair": "no"}}, {"type": "node", "id": 1567896328, "lat": 51.5099833, "lon": -0.1351305, "tags": {"check_date:wheelchair": "2023-08-04", "name": "Piccadilly Circus", "railway": "subway_entrance", "ref": "2", "source:name": "survey", "source:railway": "survey", "source:wheelchair": "survey", "wheelchair": "no"}}, {"type": "node", "id": 1568611250, "lat": 51.5117294, "lon": -0.1282276, "tags": {"entrance_marker:subway": "yes", "name": "Leicester Square", "name:ru": "\u041b\u0435\u0441\u0442\u0435\u0440-\u0441\u043a\u0432\u0435\u0440", "railway": "subway_entrance", "ref": "3", "source:name": "survey", "source:railway": "survey", "source:wheelchair": "survey", "wheelchair": "no"}}, {"type": "node", "id": 1568934912, "lat": 51.5393957, "lon": -0.1425177, "tags": {"name": "Camden Town", "railway": "subway_entrance"}}, {"type": "node", "id": 1587318992, "lat": 51.5179967, "lon": -0.082467, "tags": {"entrance": "yes", "entrance_marker:subway": "yes", "level": "-1", "railway": "subway_entrance", "wheelchair": "yes"}}, {"type": "node", "id": 1587633281, "lat": 51.5012268, "lon": -0.1259759, "tags": {"check_date:wheelchair": "2021-10-10", "railway": "subway_entrance", "wheelchair": "no", "wheelchair:description": "Steps down and in subway"}}, {"type": "node", "id": 1587633283, "lat": 51.5012427, "lon": -0.1264302, "tags": {"check_date:wheelchair": "2023-11-16", "railway": "subway_entrance", "wheelchair": "no", "wheelchair:description": "Steps down and in subway"}}, {"type": "node", "id": 1590789224, "lat": 51.5123837, "lon": -0.0932444, "tags": {"note": "Entrance to Mansion House", "railway": "subway_entrance", "source": "survey;Bing", "wheelchair": "no"}}, {"type": "node", "id": 1590789253, "lat": 51.5124088, "lon": -0.0943162, "tags": {"name": "Mansion House", "note": "Entrance to Mansion House", "railway": "subway_entrance", "source": "survey", "wheelchair": "no"}}, {"type": "node", "id": 1591175886, "lat": 51.4921484, "lon": -0.1931113, "tags": {"railway": "subway_entrance", "wheelchair": "yes"}}, {"type": "node", "id": 1614146398, "lat": 51.5224542, "lon": -0.1570953, "tags": {"railway": "subway_entrance", "source": "photograph", "wheelchair": "yes"}}, {"type": "node", "id": 1614146440, "lat": 51.5227467, "lon": -0.1576873, "tags": {"level": "0", "note": "Also entrance to Station Arcade", "railway": "subway_entrance", "source": "photograph", "wheelchair": "yes"}}, {"type": "node", "id": 1623696416, "lat": 51.532815, "lon": -0.1058906, "tags": {"name": "Angel Station", "railway": "subway_entrance", "wheelchair": "no"}}, {"type": "node", "id": 1637578514, "lat": 51.5181007, "lon": -0.1115047, "tags": {"name": "Barnards Inn", "railway": "subway_entrance", "ref": "3"}}, {"type": "node", "id": 1637578518, "lat": 51.5181134, "lon": -0.111605, "tags": {"name": "Chancery Lane", "railway": "subway_entrance", "ref": "4"}}, {"type": "node", "id": 1649365732, "lat": 51.5149482, "lon": -0.0976011, "tags": {"level": "0", "name": "St. Paul's", "railway": "subway_entrance", "ref": "2", "wheelchair": "no", "wheelchair:description": "Steps only to Booking Hall."}}, {"type": "node", "id": 1663320226, "lat": 51.5111153, "lon": -0.1136486, "tags": {"railway": "subway_entrance"}}, {"type": "node", "id": 1666386024, "lat": 51.5205973, "lon": -0.1344849, "tags": {"name": "Goodge Street", "railway": "subway_entrance", "wheelchair": "no"}}, {"type": "node", "id": 1666386104, "lat": 51.523152, "lon": -0.1243202, "tags": {"entrance": "exit", "name": "Russell Square", "railway": "subway_entrance", "ref": "A", "wheelchair": "no"}}, {"type": "node", "id": 1678155316, "lat": 51.512205, "lon": -0.0937994, "tags": {"note": "Entrance to Mansion House", "railway": "subway_entrance", "source": "photograph", "wheelchair": "no"}}, {"type": "node", "id": 1690301464, "lat": 51.5144775, "lon": 0.007277, "tags": {"level": "0", "name": "Canning Town", "railway": "subway_entrance", "wheelchair": "yes"}}, {"type": "node", "id": 1699913768, "lat": 51.5783156, "lon": -0.318311, "tags": {"railway": "subway_entrance"}}, {"type": "node", "id": 1727068707, "lat": 51.4816533, "lon": -0.0108662, "tags": {"access": "no", "fixme": "this entrance is closed", "railway": "subway_entrance"}}, {"type": "node", "id": 1733389358, "lat": 51.5133574, "lon": -0.0902138, "tags": {"level": "0", "name": "Bank station, Exit 9", "note": "This entrance does not have a designated number", "railway": "subway_entrance", "ref": "9", "wheelchair": "no"}}, {"type": "node", "id": 1744497400, "lat": 51.46675, "lon": -0.4229498, "tags": {"description": "Entrance Hatton Cross Station", "entrance": "yes", "entrance_marker:subway": "yes", "level": "0", "line": "Piccadilly", "network": "London Underground", "network:wikidata": "Q20075", "railway": "subway_entrance", "ref": "B", "wheelchair": "no"}}, {"type": "node", "id": 1744498045, "lat": 51.4669139, "lon": -0.4231277, "tags": {"description": "Entrance Hatton Cross Station", "entrance": "yes", "entrance_marker:subway": "yes", "level": "0", "line": "Piccadilly", "network": "London Underground", "network:wikidata": "Q20075", "railway": "subway_entrance", "ref": "A", "wheelchair": "no"}}, {"type": "node", "id": 1745863675, "lat": 51.5924916, "lon": -0.3344614, "tags": {"entrance": "main", "level": "0", "railway": "subway_entrance", "wheelchair": "yes"}}, {"type": "node", "id": 1747549354, "lat": 51.471169, "lon": -0.4522411, "tags": {"level": "0", "name": "Heathrow Terminals 2 & 3", "railway": "subway_entrance", "ref": "A", "wheelchair": "yes"}}, {"type": "node", "id": 1747549541, "lat": 51.471253, "lon": -0.4521495, "tags": {"level": "0", "name": "Heathrow Terminals 2 & 3", "railway": "subway_entrance", "ref": "A", "wheelchair": "yes"}}, {"type": "node", "id": 1748630218, "lat": 51.4594584, "lon": -0.447463, "tags": {"layer": "1", "name": "Heathrow Terminal 4", "operator": "London Underground", "railway": "subway_entrance"}}, {"type": "node", "id": 1748630302, "lat": 51.4601298, "lon": -0.4460682, "tags": {"layer": "2", "name": "Heathrow Terminal 4", "operator": "BAA", "railway": "subway_entrance"}}, {"type": "node", "id": 1754724809, "lat": 51.4890578, "lon": -0.1330614, "tags": {"railway": "subway_entrance", "wheelchair": "no"}}, {"type": "node", "id": 1754989023, "lat": 51.5235607, "lon": -0.1468483, "tags": {"name": "Regent's Park", "railway": "subway_entrance", "wheelchair": "no"}}, {"type": "node", "id": 1777173936, "lat": 51.5957006, "lon": 0.0908842, "tags": {"railway": "subway_entrance"}}, {"type": "node", "id": 1777742686, "lat": 51.5117535, "lon": -0.1039183, "tags": {"railway": "subway_entrance", "ref": "2"}}, {"type": "node", "id": 1777742707, "lat": 51.511678, "lon": -0.103896, "tags": {"name": "Blackfriars Station", "railway": "subway_entrance", "wheelchair": "limited"}}, {"type": "node", "id": 1781694459, "lat": 51.5227363, "lon": -0.1630943, "tags": {"access": "no", "barrier": "turnstile", "foot": "customers", "name": "Marylebone", "network": "London Underground", "old_name": "Great Central", "railway": "subway_entrance", "wheelchair": "no"}}, {"type": "node", "id": 1782059707, "lat": 51.5710689, "lon": -0.0964212, "tags": {"name": "Manor House", "railway": "subway_entrance", "wheelchair": "no"}}, {"type": "node", "id": 1782125670, "lat": 51.5233061, "lon": -0.1835603, "tags": {"entrance": "yes", "entrance_marker:subway": "yes", "level": "0", "line": "Bakerloo", "name": "Warwick Avenue Exit A", "network": "London Underground", "network:wikidata": "Q20075", "railway": "subway_entrance", "ref": "A", "wheelchair": "no"}}, {"type": "node", "id": 1783610445, "lat": 51.4651459, "lon": -0.129482, "tags": {"entrance": "yes", "name": "Clapham North", "railway": "subway_entrance"}}, {"type": "node", "id": 1795470572, "lat": 51.4855855, "lon": -0.1249507, "tags": {"railway": "subway_entrance", "ref": "4"}}, {"type": "node", "id": 1800752576, "lat": 51.5084804, "lon": -0.1035848, "tags": {"entrance": "yes", "level": "0", "name": "Blackfriars NR (South Bank West)", "railway": "subway_entrance", "source": "survey", "wheelchair": "yes", "wheelchair:description": "Wide barrier. Direct lifts from South Bank riverside walkway to platforms 1 or 2/3. Change lifts midway for platform 4. 90 degree turn in lifts for exit."}}, {"type": "node", "id": 1802592682, "lat": 51.597384, "lon": -0.1098334, "tags": {"line": "Piccadilly", "name": "Wood Green", "network": "London Underground", "railway": "subway_entrance", "wheelchair": "no"}}, {"type": "node", "id": 1802592716, "lat": 51.6070162, "lon": -0.1241971, "tags": {"check_date:wheelchair": "2025-01-29", "level": "0", "line": "Piccadilly", "name": "Bounds Green", "network": "London Underground", "railway": "subway_entrance", "source_ref": "http://en.wikipedia.org/wiki/List_of_London_Underground_stations", "wheelchair": "no"}}, {"type": "node", "id": 1812340266, "lat": 51.500261, "lon": 0.0039107, "tags": {"entrance": "yes", "level": "0", "railway": "subway_entrance", "wheelchair": "yes"}}, {"type": "node", "id": 1813223124, "lat": 51.5151011, "lon": -0.0141775, "tags": {"level": "0", "railway": "subway_entrance", "wheelchair": "yes"}}, {"type": "node", "id": 1813223139, "lat": 51.5151717, "lon": -0.0140261, "tags": {"level": "0", "railway": "subway_entrance", "wheelchair": "yes"}}, {"type": "node", "id": 1813236869, "lat": 51.4879275, "lon": -0.0102532, "tags": {"entrance": "yes", "railway": "subway_entrance", "wheelchair": "yes"}}, {"type": "node", "id": 1813788505, "lat": 51.5080573, "lon": -0.0068769, "tags": {"level": "0", "railway": "subway_entrance", "wheelchair": "yes"}}, {"type": "node", "id": 1885142188, "lat": 51.5105927, "lon": -0.0747762, "tags": {"name": "Tower Gateway DLR station", "railway": "subway_entrance", "website": "https://tfl.gov.uk/dlr", "wheelchair": "yes", "wheelchair:description": "There are two lifts behind the main entrance next to the Minories pub. DLR is step free from street to train."}}, {"type": "node", "id": 1905896400, "lat": 51.5065691, "lon": -0.1425943, "tags": {"name": "Green Park", "railway": "subway_entrance", "wheelchair": "yes"}}, {"type": "node", "id": 1925480735, "lat": 51.5071994, "lon": -0.122138, "tags": {"railway": "subway_entrance", "wheelchair": "no", "wheelchair:description": "Steps from Embankment. Use Villiers Street entrance for shops and ATMs."}}, {"type": "node", "id": 1925480736, "lat": 51.5073119, "lon": -0.1224803, "tags": {"addr:city": "London", "addr:street": "Villiers Street", "railway": "subway_entrance", "wheelchair": "no", "wheelchair:description": "Step-free to shops and ATMs only."}}, {"type": "node", "id": 1953721172, "lat": 51.5057814, "lon": -0.1145613, "tags": {"railway": "subway_entrance", "ref": "3"}}, {"type": "node", "id": 1953721173, "lat": 51.5058736, "lon": -0.1142809, "tags": {"railway": "subway_entrance", "ref": "4"}}, {"type": "node", "id": 1964240596, "lat": 51.4819835, "lon": -0.1126153, "tags": {"entrance": "yes", "name": "Oval", "railway": "subway_entrance", "wheelchair": "no"}}, {"type": "node", "id": 1979172156, "lat": 51.5010014, "lon": -0.1928234, "tags": {"railway": "subway_entrance", "wheelchair": "yes"}}, {"type": "node", "id": 1979188146, "lat": 51.5079707, "lon": -0.1268908, "tags": {"railway": "subway_entrance", "wheelchair": "no"}}, {"type": "node", "id": 1979950599, "lat": 51.5047536, "lon": -0.0861813, "tags": {"entrance": "yes", "name": "Station Approach", "railway": "subway_entrance", "ref": "4"}}, {"type": "node", "id": 1991260771, "lat": 51.6514997, "lon": -0.1501153, "tags": {"railway": "subway_entrance"}}, {"type": "node", "id": 2038051147, "lat": 51.5068876, "lon": -0.1428414, "tags": {"name": "Piccadilly (north side)", "railway": "subway_entrance", "wheelchair": "no"}}, {"type": "node", "id": 2041776608, "lat": 51.5124503, "lon": -0.0398601, "tags": {"name": "Limehouse DLR and National Rail Station, Bekesbourne Street entrance 1", "railway": "subway_entrance"}}, {"type": "node", "id": 2041776620, "lat": 51.5122881, "lon": -0.0400281, "tags": {"name": "Limehouse DLR, Bekesbourne Street entrance 2", "railway": "subway_entrance"}}, {"type": "node", "id": 2129514730, "lat": 51.603868, "lon": 0.0931251, "tags": {"railway": "subway_entrance"}}, {"type": "node", "id": 2135389151, "lat": 51.5201738, "lon": -0.0975606, "tags": {"entrance": "yes", "entrance_marker:subway": "yes", "note": "Also access to steps up to highwalk bridge", "railway": "subway_entrance", "wheelchair": "no"}}, {"type": "node", "id": 2146058862, "lat": 51.4862503, "lon": -0.1245147, "tags": {"check_date:wheelchair": "2023-10-13", "railway": "subway_entrance", "ref": "1", "wheelchair": "no"}}, {"type": "node", "id": 2162923164, "lat": 51.5461059, "lon": -0.1036336, "tags": {"access": "customers", "bicycle": "dismount", "bicycle:conditional": "no @ (Mo-Fr 07:30-09:30,16:00-19:00 AND folded=no)", "check_date:wheelchair": "2022-05-02", "name": "Highbury and Islington", "railway": "subway_entrance", "wheelchair": "yes", "wheelchair:description": "Entrance on south side (exit faces street)"}}, {"type": "node", "id": 2196630994, "lat": 51.4952836, "lon": -0.2550939, "tags": {"access": "customers", "bicycle": "dismount", "bicycle:conditional": "no @ (Mo-Fr 07:30-09:30,16:00-19:00 AND folded=no)", "entrance": "yes", "entrance_marker:subway": "yes", "level": "0", "railway": "subway_entrance", "wheelchair": "no"}}, {"type": "node", "id": 2204100391, "lat": 51.5707298, "lon": -0.0955244, "tags": {"name": "Exit 2", "railway": "subway_entrance", "ref": "2", "wheelchair": "no"}}, {"type": "node", "id": 2204100392, "lat": 51.570999, "lon": -0.0955458, "tags": {"railway": "subway_entrance", "wheelchair": "no"}}, {"type": "node", "id": 2204808369, "lat": 51.5091359, "lon": -0.026219, "tags": {"railway": "subway_entrance", "wheelchair": "no"}}, {"type": "node", "id": 2204808429, "lat": 51.5092682, "lon": -0.0265555, "tags": {"railway": "subway_entrance", "wheelchair": "no"}}, {"type": "node", "id": 2204808462, "lat": 51.5092981, "lon": -0.0260584, "tags": {"railway": "subway_entrance", "wheelchair": "no"}}, {"type": "node", "id": 2204808483, "lat": 51.5093411, "lon": -0.0266796}, {"type": "node", "id": 2204808487, "lat": 51.5093513, "lon": -0.0267055}, {"type": "node", "id": 2204808490, "lat": 51.5093577, "lon": -0.0266629}, {"type": "node", "id": 2204808493, "lat": 51.5093678, "lon": -0.0266888}, {"type": "node", "id": 2204808509, "lat": 51.5095167, "lon": -0.0266607}, {"type": "node", "id": 2204808512, "lat": 51.5095284, "lon": -0.0266904}, {"type": "node", "id": 2204808517, "lat": 51.5095455, "lon": -0.0264916, "tags": {"railway": "subway_entrance", "wheelchair": "no"}}, {"type": "node", "id": 2206651256, "lat": 51.5118294, "lon": -0.1751753, "tags": {"railway": "subway_entrance", "wheelchair": "no"}}, {"type": "node", "id": 2271434204, "lat": 51.5143111, "lon": -0.1488397, "tags": {"railway": "subway_entrance", "wheelchair": "no"}}, {"type": "node", "id": 2297110852, "lat": 51.4920088, "lon": -0.2753987, "tags": {"barrier": "turnstile", "name": "Gunnersbury", "railway": "subway_entrance", "wheelchair": "no"}}, {"type": "node", "id": 2311722541, "lat": 51.5248707, "lon": -0.0115476, "tags": {"access": "customers", "bicycle": "dismount", "bicycle:conditional": "no @ (Mo-Fr 07:30-09:30,16:00-19:00 AND folded=no)", "railway": "subway_entrance", "wheelchair": "no"}}, {"type": "node", "id": 2337312612, "lat": 51.5763807, "lon": 0.045284, "tags": {"railway": "subway_entrance", "wheelchair": "yes"}}, {"type": "node", "id": 2337312616, "lat": 51.5763823, "lon": 0.0455404, "tags": {"railway": "subway_entrance", "wheelchair": "yes"}}, {"type": "node", "id": 2337594720, "lat": 51.52722, "lon": -0.0556607, "tags": {"check_date:wheelchair": "2023-06-01", "level": "0", "line": "Central Line", "network": "London Underground", "railway": "subway_entrance", "ref": "B", "wheelchair": "no"}}, {"type": "node", "id": 2337594730, "lat": 51.5272408, "lon": -0.0551956, "tags": {"check_date:wheelchair": "2023-06-02", "level": "0", "line": "Central Line", "network": "London Underground", "railway": "subway_entrance", "ref": "A", "wheelchair": "no"}}, {"type": "node", "id": 2337594745, "lat": 51.5273609, "lon": -0.0557049, "tags": {"check_date:wheelchair": "2023-06-01", "level": "0", "line": "Central Line", "network": "London Underground", "railway": "subway_entrance", "ref": "B", "wheelchair": "no"}}, {"type": "node", "id": 2343331828, "lat": 51.5342652, "lon": -0.1389353, "tags": {"name": "Mornington Crescent", "railway": "subway_entrance"}}, {"type": "node", "id": 2350011147, "lat": 51.5680105, "lon": 0.0075499, "tags": {"railway": "subway_entrance", "wheelchair": "yes"}}, {"type": "node", "id": 2356284258, "lat": 51.5769246, "lon": 0.0664197, "tags": {"level": "0", "name": "Gants Hill", "railway": "subway_entrance", "ref": "I", "wheelchair": "no"}}, {"type": "node", "id": 2356284273, "lat": 51.5771874, "lon": 0.0660919, "tags": {"level": "0", "name": "Gants Hill", "railway": "subway_entrance", "ref": "H", "wheelchair": "no"}}, {"type": "node", "id": 2356284280, "lat": 51.5772068, "lon": 0.0656256, "tags": {"level": "0", "name": "Gants Hill", "railway": "subway_entrance", "ref": "G", "wheelchair": "yes"}}, {"type": "node", "id": 2365046453, "lat": 51.5246357, "lon": -0.1380843, "tags": {"check_date:wheelchair": "2024-12-04", "name": "Warren Street", "railway": "subway_entrance", "wheelchair": "no"}}, {"type": "node", "id": 2365046457, "lat": 51.5244913, "lon": -0.1381737, "tags": {"check_date:wheelchair": "2024-12-04", "name": "Warren Street", "railway": "subway_entrance", "wheelchair": "no"}}, {"type": "node", "id": 2374465204, "lat": 51.546233, "lon": -0.103688, "tags": {"access": "customers", "bicycle": "dismount", "bicycle:conditional": "no @ (Mo-Fr 07:30-09:30,16:00-19:00 AND folded=no)", "name": "Exit", "railway": "subway_entrance", "wheelchair": "yes", "wheelchair:description": "Exit from concourse. Full width gate on left."}}, {"type": "node", "id": 2378843902, "lat": 51.5106911, "lon": -0.0865591, "tags": {"check_date:wheelchair": "2025-06-10", "level": "0", "name": "Monument", "railway": "subway_entrance", "ref": "B", "wheelchair": "no"}}, {"type": "node", "id": 2378843911, "lat": 51.5109164, "lon": -0.0869669, "tags": {"level": "0", "name": "Monument", "railway": "subway_entrance", "ref": "C", "source": "Bing;photographic_survey", "wheelchair": "no"}}, {"type": "node", "id": 2378843912, "lat": 51.5109461, "lon": -0.0864492, "tags": {"level": "0", "name": "Monument", "railway": "subway_entrance", "ref": "D", "source": "Bing;photographic_survey", "wheelchair": "no"}}, {"type": "node", "id": 2389868966, "lat": 51.5113607, "lon": -0.0906107, "tags": {"level": "-1", "name": "Cannon Street", "railway": "subway_entrance"}}, {"type": "node", "id": 2403974186, "lat": 51.5819929, "lon": -0.0750205, "tags": {"line": "Victoria", "name": "Seven Sisters", "railway": "subway_entrance", "wheelchair": "no"}}, {"type": "node", "id": 2403974187, "lat": 51.5832024, "lon": -0.0724696, "tags": {"line": "Victoria", "name": "Seven Sisters", "railway": "subway_entrance", "wheelchair": "no"}}, {"type": "node", "id": 2403974188, "lat": 51.5832805, "lon": -0.071966, "tags": {"line": "Victoria", "name": "Seven Sisters", "railway": "subway_entrance", "wheelchair": "no"}}, {"type": "node", "id": 2403974189, "lat": 51.5835035, "lon": -0.0719602, "tags": {"line": "Victoria", "name": "Seven Sisters", "railway": "subway_entrance", "wheelchair": "no"}}, {"type": "node", "id": 2403974190, "lat": 51.583614, "lon": -0.0723972, "tags": {"line": "Victoria", "name": "Seven Sisters", "railway": "subway_entrance", "wheelchair": "no"}}, {"type": "node", "id": 2410864744, "lat": 51.4632984, "lon": -0.1702563, "tags": {"access": "yes", "bicycle": "yes", "name": "Clapham Junction Brighton Yard", "railway": "subway_entrance", "ref": "Clapham Junction Station Brighton Yard Entrance", "wheelchair": "yes"}}, {"type": "node", "id": 2417777283, "lat": 51.5654028, "lon": -0.1348591, "tags": {"name": "Archway", "network": "London Underground", "railway": "subway_entrance"}}, {"type": "node", "id": 2417777289, "lat": 51.5504507, "lon": -0.1405907, "tags": {"name": "Kentish Town", "railway": "subway_entrance"}}, {"type": "node", "id": 2417777294, "lat": 51.5567447, "lon": -0.1381318, "tags": {"line": "Northern", "name": "Tufnell Park", "network": "London Underground", "railway": "subway_entrance", "wheelchair": "no", "wikidata": "Q1780856", "wikipedia": "en:Tufnell Park tube station"}}, {"type": "node", "id": 2428147211, "lat": 51.5320998, "lon": -0.125779, "tags": {"check_date:wheelchair": "2023-08-31", "entrance": "yes", "level": "0", "name": "St Pancras", "naptan:AtcoCode": "4900STPXBOX2", "naptan:CommonName": "St Pancras International Station", "naptan:Indicator": "Entrance", "naptan:StopType": "RSE", "railway": "subway_entrance", "wheelchair": "yes"}}, {"type": "node", "id": 2450024729, "lat": 51.497645, "lon": -0.0493391, "tags": {"entrance": "yes", "entrance_marker:subway": "yes", "level": "0", "name": "Canada Water", "railway": "subway_entrance", "wheelchair": "yes"}}, {"type": "node", "id": 2450024730, "lat": 51.4985157, "lon": -0.0493461, "tags": {"entrance": "yes", "entrance_marker:subway": "yes", "level": "0", "name": "Canada Water", "railway": "subway_entrance", "wheelchair": "no"}}, {"type": "node", "id": 2458659084, "lat": 51.5469373, "lon": -0.1798285, "tags": {"entrance_marker:subway": "yes", "level": "0", "name": "Finchley Road", "railway": "subway_entrance", "ref": "A", "wheelchair": "no"}}, {"type": "node", "id": 2515594156, "lat": 51.5818905, "lon": -0.3171357, "tags": {"entrance": "main", "railway": "subway_entrance"}}, {"type": "node", "id": 2531865787, "lat": 51.5100559, "lon": -0.0765775, "tags": {"name": "Tower Hill", "railway": "subway_entrance", "wheelchair": "yes", "wheelchair:description": "\"EXIT ONLY\" with entrance to lift for Eastbound & Circle via Liverpool Street platform.  MIND THE GAP. Use signposted route to entrance for lift to westbound platforms."}}, {"type": "node", "id": 2544231186, "lat": 51.4277087, "lon": -0.1679676, "tags": {"entrance": "yes", "railway": "subway_entrance"}}, {"type": "node", "id": 2544231190, "lat": 51.4276882, "lon": -0.1677937, "tags": {"entrance": "yes", "railway": "subway_entrance"}}, {"type": "node", "id": 2558339869, "lat": 51.5128566, "lon": -0.1585309, "tags": {"name": "Marble Arch", "railway": "subway_entrance", "ref": "3", "wheelchair": "no"}}, {"type": "node", "id": 2558339870, "lat": 51.5135654, "lon": -0.1583937, "tags": {"alt_name:ru": "\u041c\u0440\u0430\u043c\u043e\u0440\u043d\u0430\u044f \u0430\u0440\u043a\u0430", "name": "Marble Arch", "name:ru": "\u041c\u0430\u0440\u0431\u043b-\u0410\u0440\u0447", "railway": "subway_entrance", "ref": "1", "wheelchair": "no"}}, {"type": "node", "id": 2574345453, "lat": 51.4988904, "lon": -0.112135, "tags": {"entrance": "main", "railway": "subway_entrance"}}, {"type": "node", "id": 2586466038, "lat": 51.5030826, "lon": -0.1514642, "tags": {"level": "0", "name": "Hyde Park Corner", "railway": "subway_entrance", "ref": "B", "wheelchair": "no"}}, {"type": "node", "id": 2621668682, "lat": 51.5007807, "lon": -0.1242229, "tags": {"railway": "subway_entrance", "wheelchair": "no", "wheelchair:description": "Steps down and in subway"}}, {"type": "node", "id": 2622210364, "lat": 51.51358, "lon": -0.0881748, "tags": {"level": "0", "name": "Bank station, Exit 3", "railway": "subway_entrance", "ref": "3", "wheelchair": "no"}}, {"type": "node", "id": 2622404466, "lat": 51.5134264, "lon": -0.0892088, "tags": {"level": "0", "name": "Bank station, Exit 1", "railway": "subway_entrance", "ref": "1", "wheelchair": "no"}}, {"type": "node", "id": 2622404476, "lat": 51.513507, "lon": -0.0891244, "tags": {"level": "0", "name": "Bank station, Exit 1", "railway": "subway_entrance", "ref": "1", "wheelchair": "no"}}, {"type": "node", "id": 2625374441, "lat": 51.5052969, "lon": -0.1135053, "tags": {"railway": "subway_entrance", "ref": "4", "wheelchair": "no"}}, {"type": "node", "id": 2629051168, "lat": 51.5858349, "lon": 0.088591, "tags": {"railway": "subway_entrance"}}, {"type": "node", "id": 2641139302, "lat": 51.5053177, "lon": -0.1134502, "tags": {"railway": "subway_entrance", "ref": "4", "wheelchair": "yes"}}, {"type": "node", "id": 2647469428, "lat": 51.5525078, "lon": -0.1054195, "tags": {"entrance": "yes", "railway": "subway_entrance", "wheelchair": "no"}}, {"type": "node", "id": 2670344081, "lat": 51.5308697, "lon": -0.1238157, "tags": {"level": "0", "name": "King's Cross St Pancras Underground Station", "railway": "subway_entrance", "wheelchair": "yes"}}, {"type": "node", "id": 2697247696, "lat": 51.5146712, "lon": 0.0083, "tags": {"level": "0", "name": "Canning Town", "railway": "subway_entrance", "wheelchair": "yes"}}, {"type": "node", "id": 2775564042, "lat": 51.511496, "lon": -0.1583635, "tags": {"railway": "subway_entrance", "ref": "7", "wheelchair": "yes"}}, {"type": "node", "id": 2775564044, "lat": 51.5119523, "lon": -0.1585534, "tags": {"railway": "subway_entrance", "ref": "5", "wheelchair": "no"}}, {"type": "node", "id": 2869062009, "lat": 51.513154, "lon": -0.0898307, "tags": {"check_date:wheelchair": "2025-03-24", "level": "0", "name": "Bank station, Exit 8", "railway": "subway_entrance", "ref": "8", "wheelchair": "no"}}, {"type": "node", "id": 2869215804, "lat": 51.5054471, "lon": -0.0870598, "tags": {"railway": "subway_entrance", "wheelchair": "yes", "wheelchair:description": "In Pedestrian shopping Mall below Bus station. Step-free into ticket hall."}}, {"type": "node", "id": 2869216633, "lat": 51.5053894, "lon": -0.0866926, "tags": {"addr:city": "London", "addr:street": "Joiner Street", "railway": "subway_entrance", "ref": "D", "wheelchair": "yes", "wheelchair:description": "In Pedestrian route below Bus Station. Step-free to Jubilee line. For Northern line, use Borough High St entrance. Step-free route to lifts for main line station."}}, {"type": "node", "id": 2870197126, "lat": 51.5406798, "lon": -0.2993047, "tags": {"access": "customers", "bicycle": "dismount", "bicycle:conditional": "no @ (Mo-Fr 07:30-09:30,16:00-19:00 AND folded=no)", "railway": "subway_entrance", "wheelchair": "no"}}, {"type": "node", "id": 2883647835, "lat": 51.5022344, "lon": -0.2265972, "tags": {"bicycle": "dismount", "bicycle:conditional": "no @ (Mo-Fr 07:30-09:30,16:00-19:00 AND folded=no)", "railway": "subway_entrance", "wheelchair": "no"}}, {"type": "node", "id": 2883647837, "lat": 51.5022641, "lon": -0.2267705, "tags": {"bicycle": "dismount", "bicycle:conditional": "no @ (Mo-Fr 07:30-09:30,16:00-19:00 AND folded=no)", "railway": "subway_entrance", "wheelchair": "no"}}, {"type": "node", "id": 2889686743, "lat": 51.4942219, "lon": -0.267707, "tags": {"access": "customers", "bicycle": "dismount", "bicycle:conditional": "no @ (Mo-Fr 07:30-09:30,16:00-19:00 AND folded=no)", "railway": "subway_entrance", "wheelchair": "no"}}, {"type": "node", "id": 2894915399, "lat": 51.5465419, "lon": -0.1465791, "tags": {"railway": "subway_entrance", "wheelchair": "no"}}, {"type": "node", "id": 2899125840, "lat": 51.5429933, "lon": -0.1157455, "tags": {"bicycle": "dismount", "bicycle:conditional": "no @ (Mo-Fr 07:30-09:30,16:00-19:00 AND folded=no)", "railway": "subway_entrance", "wheelchair": "yes"}}, {"type": "node", "id": 2900011671, "lat": 51.5791049, "lon": -0.3371918, "tags": {"access": "permissive", "bicycle": "dismount", "bicycle:conditional": "no @ (Mo-Fr 07:30-09:30,16:00-19:00 AND folded=no)", "check_date:wheelchair": "2024-02-26", "railway": "subway_entrance", "wheelchair": "no"}}, {"type": "node", "id": 2900011836, "lat": 51.579657, "lon": -0.3367879, "tags": {"access": "permissive", "bicycle": "dismount", "bicycle:conditional": "no @ (Mo-Fr 07:30-09:30,16:00-19:00 AND folded=no)", "check_date:wheelchair": "2022-02-04", "railway": "subway_entrance", "wheelchair": "no"}}, {"type": "node", "id": 2901134521, "lat": 51.5786605, "lon": -0.3182169, "tags": {"railway": "subway_entrance"}}, {"type": "node", "id": 2901411241, "lat": 51.5719963, "lon": -0.2948845, "tags": {"access": "customers", "bicycle": "dismount", "bicycle:conditional": "no @ (Mo-Fr 07:30-09:30,16:00-19:00 AND folded=no)", "check_date:wheelchair": "2020-11-15", "railway": "subway_entrance", "wheelchair": "no"}}, {"type": "node", "id": 2905107527, "lat": 51.5785225, "lon": -0.3182285, "tags": {"amenity": "ticket_validator", "barrier": "turnstile", "bicycle": "dismount", "bicycle:conditional": "no @ (Mo-Fr 07:30-09:30,16:00-19:00 AND folded=no)", "check_date:wheelchair": "2025-02-25", "railway": "subway_entrance", "wheelchair": "no"}}, {"type": "node", "id": 2905116129, "lat": 51.4590666, "lon": -0.2108073, "tags": {"access": "customers", "bicycle": "dismount", "bicycle:conditional": "no @ (Mo-Fr 07:30-09:30,16:00-19:00 AND folded=no)", "railway": "subway_entrance", "wheelchair": "no"}}, {"type": "node", "id": 2905116131, "lat": 51.5234174, "lon": -0.2597784, "tags": {"access": "customers", "bicycle": "dismount", "bicycle:conditional": "no @ (Mo-Fr 07:30-09:30,16:00-19:00 AND folded=no)", "level": "0", "railway": "subway_entrance", "ref": "A", "wheelchair": "no"}}, {"type": "node", "id": 2905116132, "lat": 51.5321632, "lon": -0.2436132, "tags": {"access": "customers", "bicycle": "dismount", "bicycle:conditional": "no @ (Mo-Fr 07:30-09:30,16:00-19:00 AND folded=no)", "railway": "subway_entrance", "wheelchair": "yes"}}, {"type": "node", "id": 2905116134, "lat": 51.5538818, "lon": -0.4495995, "tags": {"access": "customers", "bicycle": "dismount", "bicycle:conditional": "no @ (Mo-Fr 07:30-09:30,16:00-19:00 AND folded=no)", "railway": "subway_entrance", "wheelchair": "yes"}}, {"type": "node", "id": 2905116135, "lat": 51.5715664, "lon": -0.4213746, "tags": {"access": "customers", "bicycle": "dismount", "bicycle:conditional": "no @ (Mo-Fr 07:30-09:30,16:00-19:00 AND folded=no)", "entrance": "yes", "entrance_marker:subway": "yes", "level": "0", "railway": "subway_entrance", "wheelchair": "yes"}}, {"type": "node", "id": 2907810003, "lat": 51.5630165, "lon": -0.2799882, "tags": {"bicycle": "dismount", "bicycle:conditional": "no @ (Mo-Fr 07:30-09:30,16:00-19:00 AND folded=no)", "railway": "subway_entrance", "wheelchair": "no"}}, {"type": "node", "id": 2907810006, "lat": 51.563017, "lon": -0.2798856, "tags": {"bicycle": "dismount", "bicycle:conditional": "no @ (Mo-Fr 07:30-09:30,16:00-19:00 AND folded=no)", "railway": "subway_entrance", "wheelchair": "no"}}, {"type": "node", "id": 2907810047, "lat": 51.5631622, "lon": -0.2792573, "tags": {"bicycle": "dismount", "bicycle:conditional": "no @ (Mo-Fr 07:30-09:30,16:00-19:00 AND folded=no)", "name": "C", "opening_hours": "unknown \"was open on Tuesday afternoon, but not Saturday evening, when surveyed\"", "railway": "subway_entrance", "wheelchair": "yes"}}, {"type": "node", "id": 2907810065, "lat": 51.5632913, "lon": -0.2791503, "tags": {"bicycle": "dismount", "bicycle:conditional": "no @ (Mo-Fr 07:30-09:30,16:00-19:00 AND folded=no)", "name": "B", "opening_hours": "unknown \"was open on Tuesday afternoon, but not Saturday evening, when surveyed\"", "railway": "subway_entrance", "wheelchair": "yes"}}, {"type": "node", "id": 2907810083, "lat": 51.5634147, "lon": -0.2790481, "tags": {"bicycle": "dismount", "bicycle:conditional": "no @ (Mo-Fr 07:30-09:30,16:00-19:00 AND folded=no)", "name": "A", "opening_hours": "unkown \"Possibly only open for major stadium events\"", "railway": "subway_entrance", "wheelchair": "yes"}}, {"type": "node", "id": 2917442734, "lat": 51.6197308, "lon": -0.3031354, "tags": {"access": "customers", "bicycle": "dismount", "bicycle:conditional": "no @ (Mo-Fr 07:30-09:30,16:00-19:00 AND folded=no)", "railway": "subway_entrance", "wheelchair": "yes"}}, {"type": "node", "id": 2920572802, "lat": 51.5362583, "lon": -0.2572043, "tags": {"bicycle": "dismount", "bicycle:conditional": "no @ (Mo-Fr 07:30-09:30,16:00-19:00 AND folded=no)", "railway": "subway_entrance", "wheelchair": "no"}}, {"type": "node", "id": 2928924407, "lat": 51.5481612, "lon": -0.0756041, "tags": {"bicycle": "dismount", "railway": "subway_entrance", "wheelchair": "no"}}, {"type": "node", "id": 2940884436, "lat": 51.5191346, "lon": -0.1886893, "tags": {"access": "customers", "bicycle": "dismount", "bicycle:conditional": "no @ (Mo-Fr 07:30-09:30,16:00-19:00 AND folded=no)", "railway": "subway_entrance", "wheelchair": "no"}}, {"type": "node", "id": 2950867565, "lat": 51.568899, "lon": 0.2197739, "tags": {"railway": "subway_entrance", "wheelchair": "yes"}}, {"type": "node", "id": 2966431610, "lat": 51.5331559, "lon": -0.1249156, "tags": {"check_date:wheelchair": "2022-03-22", "level": "0", "railway": "subway_entrance", "wheelchair": "yes"}}, {"type": "node", "id": 2969920237, "lat": 51.4947759, "lon": -0.2450534, "tags": {"bicycle": "dismount", "bicycle:conditional": "no @ (Mo-Fr 07:30-09:30,16:00-19:00 AND folded=no)", "railway": "subway_entrance", "wheelchair": "no"}}, {"type": "node", "id": 2970698856, "lat": 51.5631246, "lon": -0.2793389, "tags": {"bicycle": "dismount", "bicycle:conditional": "no @ (Mo-Fr 07:30-09:30,16:00-19:00 AND folded=no)", "name": "D", "railway": "subway_entrance", "source": "survey;Bing 2012", "survey:date": "2014-07-19", "wheelchair": "yes"}}, {"type": "node", "id": 2970698857, "lat": 51.5631063, "lon": -0.2793574, "tags": {"bicycle": "dismount", "bicycle:conditional": "no @ (Mo-Fr 07:30-09:30,16:00-19:00 AND folded=no)", "name": "E", "railway": "subway_entrance", "source": "survey;Bing 2012", "survey:date": "2014-07-19", "wheelchair": "yes"}}, {"type": "node", "id": 2971213611, "lat": 51.5630176, "lon": -0.2797641, "tags": {"bicycle": "dismount", "bicycle:conditional": "no @ (Mo-Fr 07:30-09:30,16:00-19:00 AND folded=no)", "railway": "subway_entrance", "wheelchair": "no"}}, {"type": "node", "id": 3027323674, "lat": 51.5184049, "lon": -0.0879601, "tags": {"name": "Moorgate (east side)", "railway": "subway_entrance", "ref": "3", "wheelchair": "no"}}, {"type": "node", "id": 3027323675, "lat": 51.5185311, "lon": -0.0885115, "tags": {"name": "Moorfields", "railway": "subway_entrance", "ref": "1", "wheelchair": "no"}}, {"type": "node", "id": 3052027802, "lat": 51.5498692, "lon": 0.1992538, "tags": {"bicycle": "dismount", "bicycle:conditional": "no @ (Mo-Fr 07:30-09:30,16:00-19:00 AND folded=no)", "railway": "subway_entrance", "source": "Survey of 2014-08-31", "wheelchair": "yes"}}, {"type": "node", "id": 3053012315, "lat": 51.5541015, "lon": 0.2191379, "tags": {"bicycle": "dismount", "bicycle:conditional": "no @ (Mo-Fr 07:30-09:30,16:00-19:00 AND folded=no)", "railway": "subway_entrance", "source": "Survey of 2014-08-31", "wheelchair": "no"}}, {"type": "node", "id": 3053097229, "lat": 51.5441975, "lon": 0.1659614, "tags": {"bicycle": "dismount", "bicycle:conditional": "no @ (Mo-Fr 07:30-09:30,16:00-19:00 AND folded=no)", "check_date:wheelchair": "2024-09-01", "railway": "subway_entrance", "source": "Survey of 2014-08-31", "wheelchair": "no"}}, {"type": "node", "id": 3054468056, "lat": 51.5416767, "lon": 0.1477386, "tags": {"bicycle": "dismount", "bicycle:conditional": "no @ (Mo-Fr 07:30-09:30,16:00-19:00 AND folded=no)", "check_date:wheelchair": "2022-07-09", "railway": "subway_entrance", "source": "Survey of 2014-09-01", "wheelchair": "yes"}}, {"type": "node", "id": 3054539250, "lat": 51.5403866, "lon": 0.1275061, "tags": {"bicycle": "dismount", "bicycle:conditional": "no @ (Mo-Fr 07:30-09:30,16:00-19:00 AND folded=no)", "railway": "subway_entrance", "source": "Survey of 2014-09-01", "wheelchair": "no"}}, {"type": "node", "id": 3059650358, "lat": 51.5384136, "lon": 0.1016034, "tags": {"bicycle": "dismount", "bicycle:conditional": "no @ (Mo-Fr 07:30-09:30,16:00-19:00 AND folded=no)", "railway": "subway_entrance", "source": "Survey of 2014-09-04", "wheelchair": "yes"}}, {"type": "node", "id": 3061313991, "lat": 51.5589021, "lon": 0.2358119, "tags": {"bicycle": "dismount", "bicycle:conditional": "no @ (Mo-Fr 07:30-09:30,16:00-19:00 AND folded=no)", "railway": "subway_entrance", "source": "Survey of 2014-09-05", "wheelchair": "no"}}, {"type": "node", "id": 3077317658, "lat": 51.5303916, "lon": -0.1239569}, {"type": "node", "id": 3077317659, "lat": 51.5303171, "lon": -0.1238779}, {"type": "node", "id": 3077317660, "lat": 51.530385, "lon": -0.1237123}, {"type": "node", "id": 3077317661, "lat": 51.5304595, "lon": -0.1237912}, {"type": "node", "id": 3091088222, "lat": 51.5280128, "lon": -0.1330273, "tags": {"railway": "subway_entrance"}}, {"type": "node", "id": 3091088241, "lat": 51.5440011, "lon": -0.1537955, "tags": {"railway": "subway_entrance"}}, {"type": "node", "id": 3091088264, "lat": 51.5285571, "lon": -0.1340511, "tags": {"check_date:wheelchair": "2024-11-07", "railway": "subway_entrance", "wheelchair": "no"}}, {"type": "node", "id": 3091468568, "lat": 51.5481069, "lon": -0.3682857, "tags": {"bicycle": "dismount", "bicycle:conditional": "no @ (Mo-Fr 07:30-09:30,16:00-19:00 AND folded=no)", "railway": "subway_entrance", "wheelchair": "no"}}, {"type": "node", "id": 3100196382, "lat": 51.5155013, "lon": -0.1755859, "tags": {"name": "Paddington (Bakerloo, Circle and District lines)", "name:bg": "\u041f\u0430\u0434\u0438\u043d\u0433\u0442\u044a\u043d", "name:ru": "\u041f\u0430\u0434\u0434\u0438\u043d\u0433\u0442\u043e\u043d", "railway": "subway_entrance", "source": "local_knowledge", "wheelchair": "limited"}}, {"type": "node", "id": 3134010903, "lat": 51.5044311, "lon": -0.1075952, "tags": {"description": "Entrance to Southwark tube station", "layer": "1", "railway": "subway_entrance"}}, {"type": "node", "id": 3134010911, "lat": 51.5043075, "lon": -0.1075952, "tags": {"description": "Entrance to Southwark tube station", "layer": "1", "railway": "subway_entrance"}}, {"type": "node", "id": 3134220947, "lat": 51.5049911, "lon": -0.089535, "tags": {"addr:city": "London", "addr:housenumber": "31", "addr:street": "Borough High Street", "entrance": "yes", "name": "Borough High Street (East)", "railway": "subway_entrance", "wheelchair": "yes", "wheelchair:description": "Step-free exit from both Northern line platforms via passage & lift."}}, {"type": "node", "id": 3159304267, "lat": 51.5085247, "lon": -0.1027038, "tags": {"entrance": "yes", "name": "Blackfriars NR (South Bank East)", "railway": "subway_entrance", "wheelchair": "yes"}}, {"type": "node", "id": 3233559612, "lat": 51.5481022, "lon": -0.1919792, "tags": {"entrance": "main", "naptan:AtcoCode": "4900WHMPSTM3", "railway": "subway_entrance", "wheelchair": "yes"}}, {"type": "node", "id": 3244383798, "lat": 51.5590219, "lon": 0.2504911, "tags": {"entrance": "main", "railway": "subway_entrance"}}, {"type": "node", "id": 3279462723, "lat": 51.4722988, "lon": -0.1227768, "tags": {"railway": "subway_entrance", "wheelchair": "no"}}, {"type": "node", "id": 3283054317, "lat": 51.4626203, "lon": -0.1148297, "tags": {"railway": "subway_entrance", "wheelchair": "yes"}}, {"type": "node", "id": 3306108975, "lat": 51.5388999, "lon": 0.0514054, "tags": {"entrance": "main", "railway": "subway_entrance", "wheelchair": "yes"}}, {"type": "node", "id": 3306108988, "lat": 51.5390084, "lon": 0.0513837, "tags": {"entrance": "main", "railway": "subway_entrance"}}, {"type": "node", "id": 3306108999, "lat": 51.5391216, "lon": 0.0513565, "tags": {"entrance": "main", "railway": "subway_entrance"}}, {"type": "node", "id": 3357928886, "lat": 51.5137752, "lon": -0.1499108, "tags": {"entrance": "yes", "note": "side entrance to West One Shopping", "railway": "subway_entrance"}}, {"type": "node", "id": 3371499072, "lat": 51.5277279, "lon": -0.1336046, "tags": {"railway": "subway_entrance", "wheelchair": "yes"}}, {"type": "node", "id": 3371499084, "lat": 51.527989, "lon": -0.1331842, "tags": {"railway": "subway_entrance"}}, {"type": "node", "id": 3475040042, "lat": 51.5068863, "lon": -0.0204742, "tags": {"level": "0", "railway": "subway_entrance"}}, {"type": "node", "id": 3507694573, "lat": 51.5629602, "lon": -0.2801724, "tags": {"bicycle": "dismount", "bicycle:conditional": "no @ (Mo-Fr 07:30-09:30,16:00-19:00 AND folded=no)", "description": "This is a hydraulic Otis lift.\n                              |2\u00a6 Wembley Park station Ticket Hall\n                              |1\u00a6 Staff Only\nOlympic Square \u00a60|", "name": "Lift", "railway": "subway_entrance", "wheelchair": "yes"}}, {"type": "node", "id": 3637195704, "lat": 51.5140452, "lon": -0.1033445, "tags": {"entrance": "main", "fixme": "Is railway=subway_entrance actually the right tag for this? It's a National Rail station, so it's not a 'subway' though the line is underground here", "railway": "subway_entrance", "wheelchair": "yes"}}, {"type": "node", "id": 3637195705, "lat": 51.5140262, "lon": -0.1035538, "tags": {"entrance": "main", "fixme": "Is railway=subway_entrance actually the right tag for this? It's a National Rail station, so it's not a 'subway' though the line is underground here", "railway": "subway_entrance", "wheelchair": "no", "wheelchair:description": "Step-free entrance signposted 15m uphill from steps by bus stop F"}}, {"type": "node", "id": 3637195707, "lat": 51.5163316, "lon": -0.1033913, "tags": {"entrance": "yes", "name": "City Thameslink station (North Entrance)", "railway": "subway_entrance", "wheelchair": "no", "wheelchair:description": "No step-free access at this N entrance area; 250m south from here on south side of Ludgate Hill is the S entrance which has step-free entrances and lifts"}}, {"type": "node", "id": 3637436402, "lat": 51.5177623, "lon": -0.0823494, "tags": {"entrance_marker:subway": "yes", "level": "-1", "railway": "subway_entrance"}}, {"type": "node", "id": 3649452129, "lat": 51.5184879, "lon": -0.1784487, "tags": {"name": "Paddington (Circle and Hammersmith & City lines)", "railway": "subway_entrance"}}, {"type": "node", "id": 3654438967, "lat": 51.5298784, "lon": -0.1858029, "tags": {"name": "Maida Vale", "railway": "subway_entrance"}}, {"type": "node", "id": 3668572453, "lat": 51.4358184, "lon": -0.1597686, "tags": {"railway": "subway_entrance"}}, {"type": "node", "id": 3668572454, "lat": 51.4355326, "lon": -0.1594948, "tags": {"railway": "subway_entrance"}}, {"type": "node", "id": 3670686907, "lat": 51.5869624, "lon": -0.1648968, "tags": {"railway": "subway_entrance"}}, {"type": "node", "id": 3696548436, "lat": 51.5119463, "lon": -0.1019581, "tags": {"railway": "subway_entrance", "ref": "10"}}, {"type": "node", "id": 3707356116, "lat": 51.5061806, "lon": -0.0190901, "tags": {"railway": "subway_entrance", "wheelchair": "yes"}}, {"type": "node", "id": 3717563929, "lat": 51.5773712, "lon": -0.1457262, "tags": {"level": "-1", "railway": "subway_entrance", "wheelchair": "no"}}, {"type": "node", "id": 3718925484, "lat": 51.5322251, "lon": -0.2451025, "tags": {"access": "customers", "bicycle": "dismount", "bicycle:conditional": "no @ (Mo-Fr 07:30-09:30,16:00-19:00 AND folded=no)", "railway": "subway_entrance", "wheelchair": "yes"}}, {"type": "node", "id": 3748134859, "lat": 51.4345914, "lon": -0.1995844, "tags": {"railway": "subway_entrance", "wheelchair": "yes"}}, {"type": "node", "id": 3775184957, "lat": 51.5269897, "lon": -0.0248212, "tags": {"railway": "subway_entrance", "wheelchair": "no"}}, {"type": "node", "id": 3817850260, "lat": 51.4858265, "lon": -0.1233197, "tags": {"check_date:wheelchair": "2023-10-13", "railway": "subway_entrance", "ref": "3", "wheelchair": "no"}}, {"type": "node", "id": 3858588809, "lat": 51.5323259, "lon": -0.1260713, "tags": {"level": "0", "name": "St Pancras", "railway": "subway_entrance", "wheelchair": "yes"}}, {"type": "node", "id": 3941256584, "lat": 51.4433713, "lon": -0.1531048, "tags": {"railway": "subway_entrance"}}, {"type": "node", "id": 3941256585, "lat": 51.44329, "lon": -0.152664, "tags": {"railway": "subway_entrance"}}, {"type": "node", "id": 3951413141, "lat": 51.5297288, "lon": -0.1248959, "tags": {"level": "0", "railway": "subway_entrance", "wheelchair": "yes", "wheelchair:description": "Lift available inside building. Lift goes between street level (St. Pancras International Station) and ticket hall level (Level -1). Further lift available to Circle/Metropolitan/H&C lines. Lifts in other ticket halls for other lines."}}, {"type": "node", "id": 3951416904, "lat": 51.5316755, "lon": -0.1245798, "tags": {"level": "0", "railway": "subway_entrance"}}, {"type": "node", "id": 3951416907, "lat": 51.5318422, "lon": -0.1241039, "tags": {"description": "Entrance from Kings Cross Rail Departure Concourse (platform 9-11)", "level": "0", "railway": "subway_entrance", "wheelchair": "yes"}}, {"type": "node", "id": 3951416908, "lat": 51.5319363, "lon": -0.1247599, "tags": {"check_date:wheelchair": "2022-04-06", "description": "Entrance from Pancras Road / Regents Canal and Camden to Northern Ticket Hall", "level": "0", "railway": "subway_entrance", "wheelchair": "yes", "wheelchair:description": "Lift goes beween street level (Regent's Canal) and Northern ticket hall level (Level -1)."}}, {"type": "node", "id": 3959650479, "lat": 51.5230694, "lon": -0.1840161, "tags": {"entrance": "yes", "entrance_marker:subway": "yes", "level": "0", "line": "Bakerloo", "name": "Warwick Avenue Exit B", "network": "London Underground", "network:wikidata": "Q20075", "railway": "subway_entrance", "ref": "B", "wheelchair": "no"}}, {"type": "node", "id": 3965646193, "lat": 51.4958009, "lon": -0.324701, "tags": {"level": "0", "name": "Boston Manor", "railway": "subway_entrance", "ref": "A", "wheelchair": "no"}}, {"type": "node", "id": 3983695129, "lat": 51.5425901, "lon": -0.0044838, "tags": {"level": "0", "name": "Westfield Stratford City", "railway": "subway_entrance", "wheelchair": "yes"}}, {"type": "node", "id": 4100833163, "lat": 51.5129857, "lon": -0.124185, "tags": {"name": "Covent Garden", "railway": "subway_entrance"}}, {"type": "node", "id": 4116858565, "lat": 51.4991997, "lon": -0.1335124, "tags": {"entrance": "yes", "entrance_marker:subway": "yes", "railway": "subway_entrance", "wheelchair": "no"}}, {"type": "node", "id": 4116860365, "lat": 51.4996111, "lon": -0.1339422, "tags": {"entrance": "yes", "entrance_marker:subway": "yes", "railway": "subway_entrance", "wheelchair": "no"}}, {"type": "node", "id": 4116860369, "lat": 51.4996031, "lon": -0.1332778, "tags": {"entrance": "yes", "entrance_marker:subway": "yes", "railway": "subway_entrance", "wheelchair": "no"}}, {"type": "node", "id": 4195164069, "lat": 51.5108459, "lon": -0.104602, "tags": {"railway": "subway_entrance", "ref": "5"}}, {"type": "node", "id": 4257808979, "lat": 51.5922198, "lon": -0.3801971, "tags": {"entrance": "yes", "entrance_marker:subway": "yes", "level": "-1", "railway": "subway_entrance", "ref": "C", "wheelchair": "no"}}, {"type": "node", "id": 4274551641, "lat": 51.5028814, "lon": -0.1120901, "tags": {"name": "Waterloo", "railway": "subway_entrance"}}, {"type": "node", "id": 4274551706, "lat": 51.5033479, "lon": -0.1134842, "tags": {"name": "Waterloo", "railway": "subway_entrance", "wheelchair": "no"}}, {"type": "node", "id": 4275242334, "lat": 51.5033817, "lon": -0.1117098, "tags": {"barrier": "turnstile", "level": "0", "name": "Waterloo", "railway": "subway_entrance"}}, {"type": "node", "id": 4281073750, "lat": 51.5300855, "lon": -0.1244546, "tags": {"check_date:wheelchair": "2025-04-07", "level": "0", "railway": "subway_entrance", "wheelchair": "yes", "wheelchair:description": "Lift available inside building. Lift goes between street level (St. Pancras International Station) and ticket hall level (Level -1). Further lift available to Circle/Metropolitan/H&C lines. Lifts in other ticket halls for other lines."}}, {"type": "node", "id": 4293773567, "lat": 51.5298521, "lon": -0.1252696, "tags": {"barrier": "door", "entrance": "yes", "foot": "yes", "level": "0", "note": "2-3 doors", "railway": "subway_entrance"}}, {"type": "node", "id": 4300196357, "lat": 51.5126065, "lon": -0.0880676, "tags": {"level": "0", "name": "Bank station, DLR lift R", "note": "Lift (only) to Bank DLR station", "railway": "subway_entrance", "ref": "R", "wheelchair": "yes", "wheelchair:description": "Step-free from street to train for DLR only"}}, {"type": "node", "id": 4306818846, "lat": 51.5656633, "lon": -0.135113, "tags": {"railway": "subway_entrance", "wheelchair": "no"}}, {"type": "node", "id": 4329415739, "lat": 51.4981266, "lon": -0.0636488, "tags": {"level": "0", "name": "Bermondsey", "railway": "subway_entrance", "ref": "A", "wheelchair": "yes"}}, {"type": "node", "id": 4329936982, "lat": 51.4713525, "lon": -0.4581553, "tags": {"railway": "subway_entrance"}}, {"type": "node", "id": 4334058021, "lat": 51.5506766, "lon": -0.3157301, "tags": {"railway": "subway_entrance"}}, {"type": "node", "id": 4370324275, "lat": 51.5139393, "lon": 0.0089445, "tags": {"level": "0", "name": "Canning Town", "railway": "subway_entrance", "wheelchair": "yes"}}, {"type": "node", "id": 4443568378, "lat": 51.4873727, "lon": -0.1956141, "tags": {"level": "0", "name": "West Brompton", "railway": "subway_entrance", "ref": "A", "wheelchair": "yes"}}, {"type": "node", "id": 4452525379, "lat": 51.5904462, "lon": -0.1030155, "tags": {"entrance": "yes", "entrance_marker:subway": "yes", "level": "0", "name": "High Road Green Lanes (East)", "railway": "subway_entrance", "ref": "A", "wheelchair": "no"}}, {"type": "node", "id": 4452525386, "lat": 51.59055, "lon": -0.1036168, "tags": {"entrance": "yes", "entrance_marker:subway": "yes", "level": "0", "line": "Piccadilly", "name": "High Road (West)", "network": "London Underground", "railway": "subway_entrance", "ref": "C", "wheelchair": "no"}}, {"type": "node", "id": 4452525389, "lat": 51.5901608, "lon": -0.1035422, "tags": {"description": "Western entrance onto Turnpike Lane towards Hornsey closes at 22:00 daily", "entrance": "yes", "entrance_marker:subway": "yes", "level": "0", "name": "Turnpike Lane", "opening_hours": "Mo-Su 05:00-22:00", "railway": "subway_entrance", "ref": "B", "wheelchair": "no"}}, {"type": "node", "id": 4452525401, "lat": 51.5904966, "lon": -0.1026807, "tags": {"entrance": "yes", "entrance_marker:subway": "yes", "level": "0", "name": "High Road Green Lanes (West)", "railway": "subway_entrance", "ref": "A", "wheelchair": "no"}}, {"type": "node", "id": 4503057018, "lat": 51.4617781, "lon": -0.1382735, "tags": {"name": "Clapham Common", "railway": "subway_entrance", "wheelchair": "no"}}, {"type": "node", "id": 4503057019, "lat": 51.461833, "lon": -0.1383382, "tags": {"name": "Clapham Common", "railway": "subway_entrance", "wheelchair": "no"}}, {"type": "node", "id": 4503057076, "lat": 51.4616286, "lon": -0.1380348, "tags": {"railway": "subway_entrance", "wheelchair": "no"}}, {"type": "node", "id": 4511948225, "lat": 51.5174543, "lon": -0.0830072, "tags": {"destination": "Old Broad Street;Liverpool Street", "noname": "yes", "railway": "subway_entrance", "wheelchair": "no"}}, {"type": "node", "id": 4596766651, "lat": 51.5679551, "lon": 0.0079855, "tags": {"entrance": "yes", "railway": "subway_entrance"}}, {"type": "node", "id": 4596766652, "lat": 51.5682311, "lon": 0.0085087, "tags": {"entrance": "yes", "railway": "subway_entrance", "wheelchair": "yes"}}, {"type": "node", "id": 4613902901, "lat": 51.4968289, "lon": -0.1415229, "tags": {"description": "Access to Victoria, District and Circle lines.", "level": "-1", "name": "Tube: North Ticket Hall", "railway": "subway_entrance"}}, {"type": "node", "id": 4620931876, "lat": 51.4928602, "lon": -0.2244323, "tags": {"level": "0", "name": "Hammersmith (District and Piccadilly lines)", "railway": "subway_entrance", "wheelchair": "yes"}}, {"type": "node", "id": 4779511335, "lat": 51.5055652, "lon": -0.0866365, "tags": {"railway": "subway_entrance", "ref": "B", "wheelchair": "yes"}}, {"type": "node", "id": 4838950761, "lat": 51.4907448, "lon": 0.0685936, "tags": {"name": "Woolwich Arsenal DLR", "railway": "subway_entrance"}}, {"type": "node", "id": 4838950762, "lat": 51.4902937, "lon": 0.0692958, "tags": {"name": "Woolwich Arsenal DLR", "railway": "subway_entrance"}}, {"type": "node", "id": 4839759904, "lat": 51.4181002, "lon": -0.1780567, "tags": {"railway": "subway_entrance"}}, {"type": "node", "id": 4839779280, "lat": 51.4354906, "lon": -0.1595568, "tags": {"railway": "subway_entrance"}}, {"type": "node", "id": 4839779281, "lat": 51.4358044, "lon": -0.1596214, "tags": {"railway": "subway_entrance"}}, {"type": "node", "id": 4839785771, "lat": 51.4432555, "lon": -0.1528045, "tags": {"railway": "subway_entrance"}}, {"type": "node", "id": 4839785778, "lat": 51.443463, "lon": -0.1530782, "tags": {"railway": "subway_entrance"}}, {"type": "node", "id": 4839795869, "lat": 51.4528688, "lon": -0.1477147, "tags": {"railway": "subway_entrance"}}, {"type": "node", "id": 4839795870, "lat": 51.4528161, "lon": -0.1476459, "tags": {"railway": "subway_entrance"}}, {"type": "node", "id": 4839795871, "lat": 51.4528558, "lon": -0.1476481, "tags": {"railway": "subway_entrance"}}, {"type": "node", "id": 4841545632, "lat": 51.5776027, "lon": -0.1468003, "tags": {"entrance": "exit", "name": "Archway Road", "railway": "subway_entrance", "ref": "3", "wheelchair": "no"}}, {"type": "node", "id": 4860732668, "lat": 51.6072482, "lon": 0.0340466, "tags": {"description": "Entrance to/from Charteris Road, The Broadway, Snakes Lane West", "name": "Woodford Station", "railway": "subway_entrance", "wheelchair": "yes"}}, {"type": "node", "id": 4860732670, "lat": 51.6071883, "lon": 0.0343611, "tags": {"description": "Signposted as; Way Out, Snakes Lane (east), Madeira Grove, Busses", "railway": "subway_entrance"}}, {"type": "node", "id": 4861365382, "lat": 51.5135583, "lon": -0.0888367, "tags": {"level": "0", "name": "Bank station, Exit 2", "railway": "subway_entrance", "ref": "2", "wheelchair": "no"}}, {"type": "node", "id": 5044663755, "lat": 51.5173681, "lon": -0.1200578, "tags": {"level": "0", "name": "Holborn", "railway": "subway_entrance", "ref": "A", "wheelchair": "no"}}, {"type": "node", "id": 5055932491, "lat": 51.5237352, "lon": -0.1437287, "tags": {"level": "0", "name": "Great Portland Street", "railway": "subway_entrance", "ref": "A", "wheelchair": "yes"}}, {"type": "node", "id": 5055932492, "lat": 51.5238722, "lon": -0.1439115, "tags": {"check_date:wheelchair": "2025-02-25", "level": "0", "name": "Great Portland Street", "railway": "subway_entrance", "ref": "B", "wheelchair": "no"}}, {"type": "node", "id": 5107248201, "lat": 51.475361, "lon": -0.2008264, "tags": {"level": "0", "name": "Parsons Green", "railway": "subway_entrance", "ref": "A", "wheelchair": "no"}}, {"type": "node", "id": 5109686507, "lat": 51.5150699, "lon": -0.0717897, "tags": {"comment": "Replacing ref=F with ref=1 and adding ref:GB:tfl_uid, which references 'F'.", "description:en": "Exit 1, High Street (south side), Leman Street, Conference forum. To reach this exit from the platforms, follow signs to: High Street, Leman Street.", "entrance_marker:subway": "yes", "level": "0", "name": "Aldgate East, Exit 1, High Street (south side), Leman Street, Conference forum", "railway": "subway_entrance", "ref": "1", "ref:GB:tfl_uid": "940GZZLUADE-1000004-F-CO2-7", "wheelchair": "no"}}, {"type": "node", "id": 5126187743, "lat": 51.5161002, "lon": -0.1033444, "tags": {"entrance": "yes", "name": "City Thameslink station (North Entrance)", "railway": "subway_entrance", "wheelchair": "no", "wheelchair:description": "No step-free access at this N entrance area; 250m south from here on south side of Ludgate Hill is the S entrance which has step-free entrances and lifts"}}, {"type": "node", "id": 5142610269, "lat": 51.4807593, "lon": -0.1945311, "tags": {"railway": "subway_entrance"}}, {"type": "node", "id": 5142610298, "lat": 51.4811698, "lon": -0.1938466, "tags": {"description": "This is an emergency exit. Passengers are forced to use this exit when there is a football match.", "entrance": "exit", "exit": "emergency", "name": "Football Exit", "railway": "subway_entrance"}}, {"type": "node", "id": 5154003939, "lat": 51.5620993, "lon": -0.4419477, "tags": {"access": "customers", "entrance": "main", "railway": "subway_entrance"}}, {"type": "node", "id": 5168285119, "lat": 51.4923617, "lon": -0.1565533, "tags": {"name": "Sloane Square", "railway": "subway_entrance"}}, {"type": "node", "id": 5326322555, "lat": 51.5122147, "lon": -0.0400139, "tags": {"name": "Limehouse DLR, Bekesbourne Street ramped entrance", "railway": "subway_entrance"}}, {"type": "node", "id": 5326322558, "lat": 51.5122436, "lon": -0.0389448, "tags": {"name": "Limehouse DLR, Branch Road stepped entrance", "railway": "subway_entrance", "wheelchair": "yes"}}, {"type": "node", "id": 5326322559, "lat": 51.512383, "lon": -0.0389678, "tags": {"name": "Limehouse DLR, Branch Road entrance", "railway": "subway_entrance", "wheelchair": "yes"}}, {"type": "node", "id": 5326328177, "lat": 51.5122552, "lon": -0.0389647, "tags": {"name": "Limehouse DLR, Branch Road Concourse entrance", "railway": "subway_entrance", "wheelchair": "yes"}}, {"type": "node", "id": 5359381330, "lat": 51.5041893, "lon": -0.1073202, "tags": {"description": "Entrance to Southwark tube station", "entrance": "yes", "level": "1", "railway": "subway_entrance", "wheelchair": "no"}}, {"type": "node", "id": 5361364376, "lat": 51.5038879, "lon": -0.1047416, "tags": {"description": "Entrance to Southwark tube station - Elevator", "entrance": "yes", "level": "0", "name": "Southwark Station", "railway": "subway_entrance", "wheelchair": "yes"}}, {"type": "node", "id": 5455869571, "lat": 51.494691, "lon": -0.1003894, "tags": {"entrance": "yes", "level": "0", "name": "Elephant & Castle", "railway": "subway_entrance", "ref": "B", "wheelchair": "limited"}}, {"type": "node", "id": 5455869579, "lat": 51.4944793, "lon": -0.1004426, "tags": {"exit": "yes", "level": "0", "name": "Elephant & Castle", "railway": "subway_entrance", "ref": "B", "wheelchair": "limited"}}, {"type": "node", "id": 5455870244, "lat": 51.4959492, "lon": -0.1008758, "tags": {"level": "0", "name": "Elephant & Castle", "railway": "subway_entrance", "ref": "A", "wheelchair": "no"}}, {"type": "node", "id": 5455870246, "lat": 51.4958954, "lon": -0.1009249, "tags": {"level": "0", "name": "Elephant & Castle", "railway": "subway_entrance", "ref": "A", "wheelchair": "no"}}, {"type": "node", "id": 5455870529, "lat": 51.4957497, "lon": -0.100826, "tags": {"level": "0", "name": "Elephant & Castle", "railway": "subway_entrance", "ref": "A", "wheelchair": "no"}}, {"type": "node", "id": 5455894783, "lat": 51.5145966, "lon": 0.0081532, "tags": {"level": "0", "name": "Canning Town", "railway": "subway_entrance", "wheelchair": "yes"}}, {"type": "node", "id": 5455894788, "lat": 51.5148984, "lon": 0.0079502, "tags": {"level": "0", "name": "Canning Town", "railway": "subway_entrance", "wheelchair": "yes"}}, {"type": "node", "id": 5457001672, "lat": 51.5279442, "lon": 0.0051699, "tags": {"entrance": "yes", "entrance_marker:subway": "yes", "level": "0", "name": "West Ham", "railway": "subway_entrance", "ref": "A", "wheelchair": "yes"}}, {"type": "node", "id": 5458847085, "lat": 51.595245, "lon": -0.2500285, "tags": {"entrance_marker:subway": "yes", "level": "0", "name": "Colindale", "railway": "subway_entrance", "ref": "A", "wheelchair": "no"}}, {"type": "node", "id": 5459566868, "lat": 51.5492669, "lon": -0.2210585, "tags": {"level": "1", "name": "Walm Lane", "railway": "subway_entrance", "ref": "A"}}, {"type": "node", "id": 5459566869, "lat": 51.5490427, "lon": -0.2211603, "tags": {"level": "1", "name": "Walm Lane", "railway": "subway_entrance", "ref": "B"}}, {"type": "node", "id": 5461196611, "lat": 51.5163194, "lon": -0.1300527, "tags": {"level": "0", "name": "Exit 3 - New Oxford Street / Charing Cross Road", "note": "Tube Entrance", "railway": "subway_entrance", "ref": "3", "wheelchair": "yes"}}, {"type": "node", "id": 5461196614, "lat": 51.5165669, "lon": -0.1301739, "tags": {"check_date:wheelchair": "2023-12-18", "exit_to": "Dominion Theatre", "level": "0", "name": "Exit 2 - Tottenham Court Road / New Oxford Street", "railway": "subway_entrance", "ref": "2", "wheelchair": "no"}}, {"type": "node", "id": 5461199022, "lat": 51.5158819, "lon": -0.1298926, "tags": {"exit_to": "St Giles Square", "level": "0", "name": "Exit 4 - Charing Cross Road", "note": "Tube Entrance", "railway": "subway_entrance", "ref": "4", "wheelchair": "no"}}, {"type": "node", "id": 5461690597, "lat": 51.487237, "lon": -0.1960312, "tags": {"access": "emergency", "barrier": "gate", "name": "West Brompton", "railway": "subway_entrance", "ref": "C", "wheelchair": "no"}}, {"type": "node", "id": 5461690598, "lat": 51.4873427, "lon": -0.1956698, "tags": {"level": "0", "name": "West Brompton", "railway": "subway_entrance", "ref": "B", "wheelchair": "yes"}}, {"type": "node", "id": 5462451573, "lat": 51.5365866, "lon": -0.3237327, "tags": {"level": "0", "name": "Perivale", "railway": "subway_entrance", "ref": "C"}}, {"type": "node", "id": 5462451728, "lat": 51.5367163, "lon": -0.3239451, "tags": {"level": "0", "name": "Perivale", "railway": "subway_entrance", "ref": "A", "wheelchair": "no"}}, {"type": "node", "id": 5462451767, "lat": 51.5366373, "lon": -0.3238903, "tags": {"level": "0", "name": "Perivale", "railway": "subway_entrance", "ref": "B", "wheelchair": "no"}}, {"type": "node", "id": 5464024792, "lat": 51.4754157, "lon": -0.2009904, "tags": {"level": "0", "name": "Parsons Green", "railway": "subway_entrance", "ref": "B", "wheelchair": "no"}}, {"type": "node", "id": 5466529278, "lat": 51.4980531, "lon": -0.0498934, "tags": {"entrance": "yes", "entrance_marker:subway": "yes", "level": "0", "name": "Canada Water", "railway": "subway_entrance", "ref": "A", "wheelchair": "yes"}}, {"type": "node", "id": 5466542488, "lat": 51.5199807, "lon": -0.1047104, "tags": {"entrance": "main", "level": "0", "name": "Cowcross Street", "railway": "subway_entrance", "ref": "C", "wheelchair": "yes"}}, {"type": "node", "id": 5466543543, "lat": 51.5211132, "lon": -0.1052323, "tags": {"entrance": "secondary", "level": "0", "railway": "subway_entrance", "ref": "B", "wheelchair": "yes"}}, {"type": "node", "id": 5466543649, "lat": 51.5201248, "lon": -0.1047432, "tags": {"entrance": "main", "level": "0", "name": "Cowcross Street", "railway": "subway_entrance", "ref": "A", "wheelchair": "yes"}}, {"type": "node", "id": 5472303632, "lat": 51.6070326, "lon": -0.1240831, "tags": {"check_date:wheelchair": "2025-01-29", "level": "0", "line": "Piccadilly", "name": "Bounds Green", "network": "London Underground", "railway": "subway_entrance", "source_ref": "http://en.wikipedia.org/wiki/List_of_London_Underground_stations", "wheelchair": "no"}}, {"type": "node", "id": 5473273333, "lat": 51.5106583, "lon": -0.086503, "tags": {"check_date:wheelchair": "2025-06-10", "level": "0", "name": "King William Street (South)", "railway": "subway_entrance", "ref": "B", "wheelchair": "no"}}, {"type": "node", "id": 5473273382, "lat": 51.5107676, "lon": -0.0864061, "tags": {"check_date:wheelchair": "2025-06-10", "level": "0", "name": "Monument", "railway": "subway_entrance", "ref": "B", "wheelchair": "no"}}, {"type": "node", "id": 5473273447, "lat": 51.5109815, "lon": -0.0866498, "tags": {"level": "0", "name": "Monument", "railway": "subway_entrance", "ref": "D", "source": "Bing;photographic_survey", "wheelchair": "no"}}, {"type": "node", "id": 5473274720, "lat": 51.5129893, "lon": -0.088285, "tags": {"level": "0", "name": "Bank station, Exit 6", "railway": "subway_entrance", "ref": "6", "wheelchair": "no"}}, {"type": "node", "id": 5473274739, "lat": 51.5127727, "lon": -0.0881965, "tags": {"level": "0", "name": "Bank station, Exit P", "railway": "subway_entrance", "ref": "P", "wheelchair": "no"}}, {"type": "node", "id": 5473274907, "lat": 51.5135793, "lon": -0.0889254, "tags": {"level": "0", "name": "Bank station, Exit 2", "railway": "subway_entrance", "ref": "2", "wheelchair": "no"}}, {"type": "node", "id": 5473274971, "lat": 51.5131368, "lon": -0.089131, "tags": {"level": "0", "name": "Bank station, Exit 7", "railway": "subway_entrance", "ref": "7", "wheelchair": "no"}}, {"type": "node", "id": 5473274996, "lat": 51.5132093, "lon": -0.088672, "tags": {"level": "0", "name": "Bank station, Exit 5", "railway": "subway_entrance", "ref": "5", "wheelchair": "no"}}, {"type": "node", "id": 5473275002, "lat": 51.5133069, "lon": -0.0886589, "tags": {"level": "0", "name": "Bank station, Exit 5", "railway": "subway_entrance", "ref": "5", "wheelchair": "no"}}, {"type": "node", "id": 5473344936, "lat": 51.5504137, "lon": -0.1644616, "tags": {"check_date:wheelchair": "2024-03-19", "level": "0", "name": "Belsize Park", "railway": "subway_entrance", "ref": "A", "wheelchair": "no"}}, {"type": "node", "id": 5474926446, "lat": 51.4933378, "lon": -0.2248497, "tags": {"level": "0", "name": "Hammersmith (Circle and Hammersmith & City lines)", "railway": "subway_entrance", "wheelchair": "yes"}}, {"type": "node", "id": 5474926464, "lat": 51.4934031, "lon": -0.2250253, "tags": {"level": "0", "name": "Hammersmith (Circle and Hammersmith & City lines)", "railway": "subway_entrance", "wheelchair": "yes"}}, {"type": "node", "id": 5475500317, "lat": 51.4999285, "lon": -0.1626493, "tags": {"check_date:wheelchair": "2024-10-18", "level": "0", "name": "Knightsbridge", "railway": "subway_entrance", "ref": "A", "wheelchair": "no"}}, {"type": "node", "id": 5475500517, "lat": 51.5017621, "lon": -0.1600835, "tags": {"level": "0", "name": "Knightsbridge", "railway": "subway_entrance", "ref": "C", "wheelchair": "no"}}, {"type": "node", "id": 5475500551, "lat": 51.5019769, "lon": -0.1603586, "tags": {"bicycle": "dismount", "bicycle:conditional": "no @ (folded=no)", "level": "-0.3;0", "name": "Knightsbridge", "railway": "subway_entrance", "ref": "B", "wheelchair": "no"}}, {"type": "node", "id": 5475500846, "lat": 51.501601, "lon": -0.1604201, "tags": {"level": "0", "name": "Knightsbridge", "railway": "subway_entrance", "ref": "D", "wheelchair": "no"}}, {"type": "node", "id": 5475561743, "lat": 51.5027521, "lon": -0.1530773, "tags": {"level": "0", "name": "Hyde Park Corner", "railway": "subway_entrance", "ref": "E", "wheelchair": "no"}}, {"type": "node", "id": 5475561757, "lat": 51.5027124, "lon": -0.1526408, "tags": {"name": "Hyde Park Corner", "railway": "subway_entrance", "ref": "D", "wheelchair": "no"}}, {"type": "node", "id": 5475561765, "lat": 51.5030684, "lon": -0.1527601, "tags": {"level": "0", "name": "Hyde Park Corner", "railway": "subway_entrance", "ref": "A", "wheelchair": "no"}}, {"type": "node", "id": 5475561770, "lat": 51.5030839, "lon": -0.1532286, "tags": {"level": "0", "name": "Hyde Park Corner", "railway": "subway_entrance", "ref": "G", "wheelchair": "no"}}, {"type": "node", "id": 5475684862, "lat": 51.5149649, "lon": -0.0970955, "tags": {"level": "0", "name": "St. Paul's", "railway": "subway_entrance", "ref": "1", "wheelchair": "no"}}, {"type": "node", "id": 5475684864, "lat": 51.5150872, "lon": -0.0971399, "tags": {"level": "0", "name": "St. Paul's", "railway": "subway_entrance", "ref": "1", "wheelchair": "no"}}, {"type": "node", "id": 5479717495, "lat": 51.5130818, "lon": -0.1242456, "tags": {"entrance": "main", "entrance_marker:subway": "yes", "name": "Covent Garden", "railway": "subway_entrance", "ref": "A", "wheelchair": "no"}}, {"type": "node", "id": 5479777483, "lat": 51.5130045, "lon": -0.1240666, "tags": {"entrance": "exit", "entrance_marker:subway": "yes", "name": "Covent Garden", "railway": "subway_entrance", "ref": "B"}}, {"type": "node", "id": 5481955758, "lat": 51.5202153, "lon": -0.1702637, "tags": {"entrance": "yes", "entrance_marker:subway": "yes", "name": "Edgware Road (Bakerloo line)", "railway": "subway_entrance", "wheelchair": "yes", "wikidata": "Q1347608"}}, {"type": "node", "id": 5481981491, "lat": 51.4590654, "lon": -0.4466684, "tags": {"entrance": "yes", "entrance_marker:subway": "yes", "level": "0", "name": "Heathrow Terminal 4", "railway": "subway_entrance", "ref": "A", "wheelchair": "no"}}, {"type": "node", "id": 5481982955, "lat": 51.4592756, "lon": -0.4448189, "tags": {"entrance": "yes", "entrance_marker:subway": "yes", "level": "0", "name": "Heathrow Terminal 4", "railway": "subway_entrance", "ref": "C"}}, {"type": "node", "id": 5482434785, "lat": 51.5762099, "lon": 0.0672753, "tags": {"level": "0", "name": "Gants Hill", "railway": "subway_entrance", "ref": "C", "wheelchair": "yes"}}, {"type": "node", "id": 5482434791, "lat": 51.5763265, "lon": 0.0668115, "tags": {"level": "0", "name": "Gants Hill", "railway": "subway_entrance", "ref": "D", "wheelchair": "no"}}, {"type": "node", "id": 5482434804, "lat": 51.5764198, "lon": 0.0675781, "tags": {"level": "0", "name": "Gants Hill", "railway": "subway_entrance", "ref": "B", "wheelchair": "yes"}}, {"type": "node", "id": 5482434811, "lat": 51.5766133, "lon": 0.0670476, "tags": {"level": "0", "name": "Gants Hill", "railway": "subway_entrance", "ref": "A", "wheelchair": "no"}}, {"type": "node", "id": 5482434833, "lat": 51.5764355, "lon": 0.0657825, "tags": {"level": "0", "name": "Gants Hill", "railway": "subway_entrance", "ref": "E", "wheelchair": "yes"}}, {"type": "node", "id": 5482434835, "lat": 51.5764434, "lon": 0.0654378, "tags": {"level": "0", "name": "Gants Hill", "railway": "subway_entrance", "ref": "E", "wheelchair": "no"}}, {"type": "node", "id": 5482434889, "lat": 51.5770541, "lon": 0.0663015, "tags": {"level": "0", "name": "Gants Hill", "railway": "subway_entrance", "ref": "H", "wheelchair": "yes"}}, {"type": "node", "id": 5482470204, "lat": 51.5566418, "lon": -0.1783414, "tags": {"entrance": "main", "name": "Hampstead", "railway": "subway_entrance", "ref": "A", "wheelchair": "no"}}, {"type": "node", "id": 5482470228, "lat": 51.5567965, "lon": -0.1783365, "tags": {"entrance": "exit", "name": "Hampstead", "railway": "subway_entrance", "ref": "B", "wheelchair": "no"}}, {"type": "node", "id": 5482917772, "lat": 51.552848, "lon": -0.1128039, "tags": {"level": "0", "name": "Holloway Road", "railway": "subway_entrance", "wheelchair": "no"}}, {"type": "node", "id": 5482938750, "lat": 51.5072807, "lon": -0.2056211, "tags": {"level": "0", "name": "Holland Park", "railway": "subway_entrance", "wheelchair": "no"}}, {"type": "node", "id": 5487992736, "lat": 51.5345879, "lon": -0.174158, "tags": {"level": "0", "name": "St. John's Wood", "railway": "subway_entrance", "wheelchair": "no"}}, {"type": "node", "id": 5489115426, "lat": 51.5431658, "lon": -0.1748294, "tags": {"level": "0", "name": "Swiss Cottage Exit 3", "railway": "subway_entrance", "ref": "3", "wheelchair": "no"}}, {"type": "node", "id": 5489115519, "lat": 51.5432171, "lon": -0.1743411, "tags": {"level": "0", "name": "Swiss Cottage Exit 1", "railway": "subway_entrance", "ref": "1", "wheelchair": "no"}}, {"type": "node", "id": 5489115556, "lat": 51.5436891, "lon": -0.1744458, "tags": {"check_date:wheelchair": "2023-12-01", "level": "0", "name": "Swiss Cottage Exit 2", "railway": "subway_entrance", "ref": "2", "wheelchair": "no"}}, {"type": "node", "id": 5490904342, "lat": 51.5467597, "lon": -0.1909625, "tags": {"entrance": "yes", "entrance_marker:subway": "yes", "level": "0", "naptan:AtcoCode": "4900ZZLUWHP1", "railway": "subway_entrance", "ref": "A", "wheelchair": "no"}}, {"type": "node", "id": 5491203694, "lat": 51.5312058, "lon": 0.0180457, "tags": {"entrance": "yes", "entrance_marker:subway": "yes", "level": "1", "name": "Plaistow", "railway": "subway_entrance", "ref": "A", "wheelchair": "no"}}, {"type": "node", "id": 5491207368, "lat": 51.5313459, "lon": 0.0178602, "tags": {"entrance": "yes", "entrance_marker:subway": "yes", "level": "1", "name": "Plaistow", "railway": "subway_entrance", "ref": "C", "wheelchair": "no"}}, {"type": "node", "id": 5491207852, "lat": 51.5312674, "lon": 0.0180141, "tags": {"entrance": "yes", "entrance_marker:subway": "yes", "level": "1", "name": "Plaistow", "railway": "subway_entrance", "ref": "B", "wheelchair": "no"}}, {"type": "node", "id": 5491840998, "lat": 51.4668696, "lon": -0.4231775, "tags": {"description": "Entrance Hatton Cross Station", "entrance": "yes", "entrance_marker:subway": "yes", "level": "0", "line": "Piccadilly", "network": "London Underground", "network:wikidata": "Q20075", "railway": "subway_entrance", "ref": "A", "wheelchair": "no"}}, {"type": "node", "id": 5491841000, "lat": 51.4667785, "lon": -0.4228783, "tags": {"description": "Entrance Hatton Cross Station", "entrance": "yes", "entrance_marker:subway": "yes", "level": "0", "line": "Piccadilly", "network": "London Underground", "network:wikidata": "Q20075", "railway": "subway_entrance", "ref": "B", "wheelchair": "no"}}, {"type": "node", "id": 5491841002, "lat": 51.4669429, "lon": -0.4230554, "tags": {"description": "Entrance Hatton Cross Station", "entrance": "yes", "entrance_marker:subway": "yes", "level": "0", "line": "Piccadilly", "network": "London Underground", "network:wikidata": "Q20075", "railway": "subway_entrance", "ref": "A", "wheelchair": "no"}}, {"type": "node", "id": 5493361584, "lat": 51.5277449, "lon": -0.0553067, "tags": {"level": "0", "line": "Central Line", "network": "London Underground", "railway": "subway_entrance", "ref": "C", "wheelchair": "no"}}, {"type": "node", "id": 5493439054, "lat": 51.4711421, "lon": -0.3670335, "tags": {"check_date:wheelchair": "2022-01-09", "level": "0", "name": "Hounslow Central", "railway": "subway_entrance", "wheelchair": "no"}}, {"type": "node", "id": 5495828221, "lat": 51.5270531, "lon": -0.2846025, "tags": {"entrance": "yes", "entrance_marker:subway": "yes", "level": "0", "railway": "subway_entrance", "ref": "A", "wheelchair": "no"}}, {"type": "node", "id": 5495828261, "lat": 51.5270224, "lon": -0.2843487, "tags": {"entrance": "yes", "entrance_marker:subway": "yes", "level": "0", "railway": "subway_entrance", "ref": "B", "wheelchair": "no"}}, {"type": "node", "id": 5504569178, "lat": 51.5928906, "lon": -0.3807579, "tags": {"entrance": "yes", "entrance_marker:subway": "yes", "level": "0", "railway": "subway_entrance", "wheelchair": "yes"}}, {"type": "node", "id": 5531126005, "lat": 51.5234339, "lon": -0.2598632, "tags": {"check_date:wheelchair": "2023-10-13", "entrance": "yes", "entrance_marker:subway": "yes", "level": "0", "name": "North Acton", "railway": "subway_entrance", "ref": "B", "wheelchair": "no"}}, {"type": "node", "id": 5574051323, "lat": 51.5105943, "lon": -0.0730427, "tags": {"railway": "subway_entrance"}}, {"type": "node", "id": 5769380890, "lat": 51.5142387, "lon": -0.149487, "tags": {"entrance": "main", "note": "main entrance to West One Shopping and Bond St tube", "railway": "subway_entrance", "wheelchair": "yes"}}, {"type": "node", "id": 5894785001, "lat": 51.5196382, "lon": -0.1680118, "tags": {"name": "Edgware Road (Circle, District and Hammersmith & City lines)", "railway": "subway_entrance", "wheelchair": "yes"}}, {"type": "node", "id": 5971818069, "lat": 51.5051359, "lon": -0.084646, "tags": {"door": "no", "entrance": "main", "name": "Tooley Street", "railway": "subway_entrance", "ref": "2", "wheelchair": "yes"}}, {"type": "node", "id": 6116290281, "lat": 51.5125212, "lon": -0.0903469, "tags": {"fixme": "ref, name, improve internals", "level": "0", "name": "Bank station, Walbrook exit", "railway": "subway_entrance", "wheelchair": "yes", "wheelchair:description": "Step-free access to Waterloo & City and DLR"}}, {"type": "node", "id": 6138426566, "lat": 51.5696289, "lon": -0.0078004, "tags": {"bicycle": "dismount", "bicycle:conditional": "no @ (Mo-Fr 07:30-09:30,16:00-19:00 AND folded=no)", "railway": "subway_entrance", "wheelchair": "no"}}, {"type": "node", "id": 6155015831, "lat": 51.5253442, "lon": -0.0868945, "tags": {"name": "Old Street - Exit 2", "railway": "subway_entrance", "ref": "2", "wheelchair": "no"}}, {"type": "node", "id": 6250466320, "lat": 51.510266, "lon": -0.1350436, "tags": {"check_date:wheelchair": "2023-08-04", "name": "Piccadilly Circus", "railway": "subway_entrance", "ref": "1", "source:name": "survey", "source:railway": "survey", "source:wheelchair": "survey", "wheelchair": "no"}}, {"type": "node", "id": 6277572278, "lat": 51.5480721, "lon": -0.1920556, "tags": {"entrance": "yes", "naptan:AtcoCode": "4900WHMPSTM2", "railway": "subway_entrance", "wheelchair": "yes"}}, {"type": "node", "id": 6279255419, "lat": 51.5750565, "lon": -0.3709008, "tags": {"entrance": "main", "railway": "subway_entrance", "wheelchair": "no"}}, {"type": "node", "id": 6306753639, "lat": 51.5871841, "lon": -0.1643557, "tags": {"railway": "subway_entrance"}}, {"type": "node", "id": 6311039270, "lat": 51.5098023, "lon": -0.1349527, "tags": {"check_date:wheelchair": "2022-05-30", "name": "Piccadilly Circus", "railway": "subway_entrance", "ref": "2", "wheelchair": "no"}}, {"type": "node", "id": 6328949043, "lat": 51.6518148, "lon": -0.1497418, "tags": {"railway": "subway_entrance", "wheelchair": "yes"}}, {"type": "node", "id": 6328949044, "lat": 51.651607, "lon": -0.1498142, "tags": {"railway": "subway_entrance"}}, {"type": "node", "id": 6328949045, "lat": 51.6515825, "lon": -0.1501662, "tags": {"railway": "subway_entrance"}}, {"type": "node", "id": 6329070631, "lat": 51.4934906, "lon": -0.0478629, "tags": {"railway": "subway_entrance", "wheelchair": "no"}}, {"type": "node", "id": 6329070743, "lat": 51.4934468, "lon": -0.0479981, "tags": {"railway": "subway_entrance", "wheelchair": "no"}}, {"type": "node", "id": 6340614312, "lat": 51.4902631, "lon": -0.1956393, "tags": {"barrier": "ticket_barrier", "name": "Earl's Court (Warwick Road)", "railway": "subway_entrance"}}, {"type": "node", "id": 6410209279, "lat": 51.5137676, "lon": -0.2175431, "tags": {"access": "customers", "bicycle": "dismount", "bicycle:conditional": "no @ (Mo-Fr 07:30-09:30,16:00-19:00 AND folded=no)", "railway": "subway_entrance", "wheelchair": "no"}}, {"type": "node", "id": 6431933493, "lat": 51.5196142, "lon": -0.099281, "tags": {"entrance": "exit", "name": "Barbican", "railway": "subway_entrance"}}, {"type": "node", "id": 6443125703, "lat": 51.4154727, "lon": -0.1922095, "tags": {"railway": "subway_entrance"}}, {"type": "node", "id": 6473275632, "lat": 51.5384162, "lon": -0.0010289, "tags": {"entrance": "yes", "railway": "subway_entrance", "wheelchair": "no"}}, {"type": "node", "id": 6475647579, "lat": 51.4729729, "lon": -0.3564948, "tags": {"level": "0", "name": "Hounslow East", "railway": "subway_entrance", "wheelchair": "yes"}}, {"type": "node", "id": 6486214853, "lat": 51.480934, "lon": -0.3519716, "tags": {"level": "0", "name": "Osterley", "railway": "subway_entrance", "ref": "A", "wheelchair": "yes"}}, {"type": "node", "id": 6502804319, "lat": 51.4809448, "lon": -0.3519077, "tags": {"level": "0", "name": "Osterley", "railway": "subway_entrance", "ref": "B", "wheelchair": "yes"}}, {"type": "node", "id": 6507056587, "lat": 51.495834, "lon": -0.3247572, "tags": {"level": "0", "name": "Boston Manor", "railway": "subway_entrance", "ref": "B", "wheelchair": "no"}}, {"type": "node", "id": 6735162515, "lat": 51.5039682, "lon": -0.115186, "tags": {"level": "0", "name": "York Road", "railway": "subway_entrance", "wheelchair": "yes"}}, {"type": "node", "id": 6866516269, "lat": 51.5182568, "lon": -0.1110975, "tags": {"name": "Holborn Circus", "railway": "subway_entrance", "ref": "1", "wheelchair": "no"}}, {"type": "node", "id": 6866516282, "lat": 51.5182781, "lon": -0.111536, "tags": {"name": "Gray's Inn Road", "railway": "subway_entrance", "ref": "2"}}, {"type": "node", "id": 6906005966, "lat": 51.5636221, "lon": -0.1070271, "tags": {"entrance": "yes", "railway": "subway_entrance"}}, {"type": "node", "id": 6911684862, "lat": 51.4911629, "lon": 0.1214982, "tags": {"railway": "subway_entrance", "wheelchair": "yes"}}, {"type": "node", "id": 6911684865, "lat": 51.4910422, "lon": 0.1215229, "tags": {"railway": "subway_entrance", "wheelchair": "yes"}}, {"type": "node", "id": 6981269682, "lat": 51.4943304, "lon": -0.1741782, "tags": {"name": "South Kensington", "railway": "subway_entrance", "wheelchair": "no", "wheelchair:description": "Steps only from Arcade to platform level and subway to museums"}}, {"type": "node", "id": 7556510381, "lat": 51.513086, "lon": -0.1241584, "tags": {"entrance": "main", "entrance_marker:subway": "yes", "name": "Covent Garden", "railway": "subway_entrance", "ref": "A", "wheelchair": "no"}}, {"type": "node", "id": 7557173555, "lat": 51.5231679, "lon": -0.1242495, "tags": {"entrance": "main", "name": "Russell Square", "railway": "subway_entrance", "ref": "A", "wheelchair": "no"}}, {"type": "node", "id": 7702484008, "lat": 51.5221785, "lon": -0.1563148, "tags": {"level": "0", "name": "Baker Street", "railway": "subway_entrance", "wheelchair": "no"}}, {"type": "node", "id": 7702807819, "lat": 51.568322, "lon": 0.0085216, "tags": {"entrance": "yes", "railway": "subway_entrance"}}, {"type": "node", "id": 7712929538, "lat": 51.507027, "lon": -0.1431369, "tags": {"entrance": "yes", "name": "Stratton Street", "railway": "subway_entrance", "wheelchair": "no"}}, {"type": "node", "id": 7730374800, "lat": 51.4956992, "lon": -0.1432381, "tags": {"railway": "subway_entrance", "wheelchair": "yes"}}, {"type": "node", "id": 7844644589, "lat": 51.4812916, "lon": -0.1940801, "tags": {"description": "This is an emergency exit. Passengers are forced to use this exit when there is a football match.", "entrance": "exit", "exit": "emergency", "name": "Football Exit", "railway": "subway_entrance", "wheelchair": "no"}}, {"type": "node", "id": 7884264552, "lat": 51.5432265, "lon": -0.0240197, "tags": {"railway": "subway_entrance", "wheelchair": "yes"}}, {"type": "node", "id": 8018471586, "lat": 51.5278512, "lon": -0.133045, "tags": {"railway": "subway_entrance", "wheelchair": "yes"}}, {"type": "node", "id": 8089844497, "lat": 51.5473404, "lon": -0.1911734, "tags": {"entrance": "main", "naptan:AtcoCode": "4900WHMDSTD0", "railway": "subway_entrance", "wheelchair": "yes"}}, {"type": "node", "id": 8176294605, "lat": 51.4872899, "lon": -0.1957722, "tags": {"barrier": "gate", "level": "0", "name": "West Brompton", "railway": "subway_entrance", "wheelchair": "yes"}}, {"type": "node", "id": 8557777012, "lat": 51.5645947, "lon": -0.107325, "tags": {"entrance": "yes", "name": "Goodwin Street", "railway": "subway_entrance"}}, {"type": "node", "id": 8645537523, "lat": 51.5056539, "lon": -0.2264828, "tags": {"railway": "subway_entrance"}}, {"type": "node", "id": 8645537540, "lat": 51.5056361, "lon": -0.2263273, "tags": {"railway": "subway_entrance"}}, {"type": "node", "id": 8723231995, "lat": 51.4432264, "lon": -0.1526458, "tags": {"railway": "subway_entrance"}}, {"type": "node", "id": 8898783675, "lat": 51.5182433, "lon": -0.0889197, "tags": {"name": "Moorgate", "name:ru": "\u041c\u0443\u0440\u0433\u0435\u0439\u0442", "railway": "subway_entrance", "wheelchair": "no"}}, {"type": "node", "id": 8993761021, "lat": 51.53043, "lon": -0.1237599}, {"type": "node", "id": 9023329966, "lat": 51.5371498, "lon": 0.000555, "tags": {"entrance": "yes", "railway": "subway_entrance", "wheelchair": "yes"}}, {"type": "node", "id": 9030284975, "lat": 51.5178045, "lon": -0.0839343, "tags": {"name": "Broadgate", "railway": "subway_entrance"}}, {"type": "node", "id": 9034242022, "lat": 51.5200161, "lon": -0.0604677, "tags": {"name": "Durward Street", "opening_hours": "Mo-Sa 05:15-23:00;Su 07:00-23:00", "public_transport": "railway", "railway": "subway_entrance", "wheelchair": "yes"}}, {"type": "node", "id": 9034242023, "lat": 51.5193741, "lon": -0.0595884, "tags": {"public_transport": "railway", "railway": "subway_entrance", "wheelchair": "yes"}}, {"type": "node", "id": 9041881190, "lat": 51.5158486, "lon": -0.1340619, "tags": {"railway": "subway_entrance"}}, {"type": "node", "id": 9104455045, "lat": 51.5000472, "lon": 0.0031437, "tags": {"entrance": "yes", "level": "0", "railway": "subway_entrance", "wheelchair": "yes"}}, {"type": "node", "id": 9110399663, "lat": 51.4798053, "lon": -0.1422779, "tags": {"name": "Battersea Power Station", "railway": "subway_entrance", "wheelchair": "yes"}}, {"type": "node", "id": 9113091952, "lat": 51.4798773, "lon": -0.1284945, "tags": {"railway": "subway_entrance", "wheelchair": "yes"}}, {"type": "node", "id": 9127288490, "lat": 51.5409644, "lon": -0.0576235, "tags": {"destination": "Mare Street;Victoria Park", "entrance": "main", "railway": "subway_entrance"}}, {"type": "node", "id": 9127288495, "lat": 51.5409873, "lon": -0.0580236, "tags": {"destination": "London Fields", "entrance": "main", "railway": "subway_entrance"}}, {"type": "node", "id": 9190969045, "lat": 51.4928967, "lon": -0.2244361, "tags": {"level": "0", "name": "Hammersmith (District and Piccadilly lines)", "railway": "subway_entrance", "wheelchair": "yes"}}, {"type": "node", "id": 9264275893, "lat": 51.4939551, "lon": -0.236239, "tags": {"level": "0", "railway": "subway_entrance"}}, {"type": "node", "id": 9264275894, "lat": 51.4940421, "lon": -0.2364762, "tags": {"level": "0", "railway": "subway_entrance"}}, {"type": "node", "id": 9300541899, "lat": 51.5253314, "lon": -0.1354506, "tags": {"level": "0", "name": "Euston Square", "name:ru": "\u041f\u043b\u043e\u0449\u0430\u0434\u044c \u042e\u0441\u0442\u043e\u043d", "network": "London Underground", "railway": "subway_entrance", "ref": "A", "wheelchair": "yes"}}, {"type": "node", "id": 9344480910, "lat": 51.5080027, "lon": -0.1269767, "tags": {"railway": "subway_entrance", "wheelchair": "no"}}, {"type": "node", "id": 9396600875, "lat": 51.546927, "lon": -0.2041339, "tags": {"entrance_marker:subway": "yes", "level": "0", "name": "Kilburn", "railway": "subway_entrance", "ref": "A", "toilets:wheelchair": "yes", "wheelchair": "yes"}}, {"type": "node", "id": 9436818729, "lat": 51.5146377, "lon": -0.1486238, "tags": {"name": "Marylebone Lane", "railway": "subway_entrance", "wheelchair": "yes"}}, {"type": "node", "id": 9556379979, "lat": 51.5299656, "lon": -0.2928873, "tags": {"railway": "subway_entrance"}}, {"type": "node", "id": 9597688949, "lat": 51.4969065, "lon": -0.1414872, "tags": {"description": "Access to Victoria, District and Circle lines.", "level": "0", "name": "Tube: North Ticket Hall", "railway": "subway_entrance"}}, {"type": "node", "id": 9597688950, "lat": 51.4969391, "lon": -0.141456, "tags": {"description": "Access to Victoria, District and Circle lines.", "level": "0", "name": "Tube: North Ticket Hall", "railway": "subway_entrance"}}, {"type": "node", "id": 9647992503, "lat": 51.5175566, "lon": -0.2890993, "tags": {"railway": "subway_entrance"}}, {"type": "node", "id": 9684083994, "lat": 51.512002, "lon": -0.1023041, "tags": {"railway": "subway_entrance", "ref": "9"}}, {"type": "node", "id": 9804578359, "lat": 51.5195344, "lon": -0.0996383, "tags": {"entrance": "yes", "name": "Barbican", "railway": "subway_entrance"}}, {"type": "node", "id": 9980862189, "lat": 51.5257614, "lon": -0.0877452, "tags": {"fixme": "Check location", "name": "Old Street Station", "railway": "subway_entrance"}}, {"type": "node", "id": 10047756841, "lat": 51.5104788, "lon": -0.1871803, "tags": {"railway": "subway_entrance"}}, {"type": "node", "id": 10197479029, "lat": 51.5033647, "lon": -0.0176247, "tags": {"level": "0", "name": "East Entrance", "railway": "subway_entrance", "wheelchair": "no"}}, {"type": "node", "id": 10219897125, "lat": 51.5058369, "lon": -0.0162816, "tags": {"level": "0", "railway": "subway_entrance", "wheelchair": "yes"}}, {"type": "node", "id": 10251043187, "lat": 51.5777509, "lon": -0.1456681, "tags": {"railway": "subway_entrance"}}, {"type": "node", "id": 10563633053, "lat": 51.51407, "lon": -0.1445941, "tags": {"name": "Hanover Square", "network": "Elizabeth Line", "operator": "TfL", "railway": "subway_entrance", "wheelchair": "yes", "wikidata": "Q115300899"}}, {"type": "node", "id": 10580445542, "lat": 51.5135565, "lon": -0.148911, "tags": {"entrance": "main", "name": "Davis Street", "railway": "subway_entrance"}}, {"type": "node", "id": 10671686470, "lat": 51.5010615, "lon": -0.1248863, "tags": {"railway": "subway_entrance", "wheelchair": "yes"}}, {"type": "node", "id": 10676305852, "lat": 51.5162766, "lon": -0.1305855, "tags": {"level": "0", "name": "Exit 1 - Charing Cross Road / Oxford Street", "railway": "subway_entrance", "ref": "1", "toilets:wheelchair": "no", "wheelchair": "yes"}}, {"type": "node", "id": 10699155991, "lat": 51.5112459, "lon": -0.087869, "tags": {"level": "0", "lit": "yes", "name": "Bank Station / Cannon Street", "railway": "subway_entrance", "wheelchair": "yes"}}, {"type": "node", "id": 10773003064, "lat": 51.5173325, "lon": -0.210171, "tags": {"railway": "subway_entrance"}}, {"type": "node", "id": 10788118084, "lat": 51.5485586, "lon": -0.1914866, "tags": {"amenity": "ticket_validator", "barrier": "gate", "entrance": "yes", "naptan:AtcoCode": "4900WHMPSTM1", "railway": "subway_entrance"}}, {"type": "node", "id": 10793986849, "lat": 51.5919554, "lon": 0.0274109, "tags": {"level": "0", "railway": "subway_entrance", "wheelchair": "yes"}}, {"type": "node", "id": 10793986850, "lat": 51.5919398, "lon": 0.0275211, "tags": {"level": "0", "railway": "subway_entrance"}}, {"type": "node", "id": 10794001703, "lat": 51.5808197, "lon": 0.0217297, "tags": {"description:en": "Entrance to Central Line Westbound Platform 1", "railway": "subway_entrance"}}, {"type": "node", "id": 10794007650, "lat": 51.5756145, "lon": 0.0285644, "tags": {"railway": "subway_entrance"}}, {"type": "node", "id": 10794007651, "lat": 51.5755841, "lon": 0.0285844, "tags": {"railway": "subway_entrance"}}, {"type": "node", "id": 10794029352, "lat": 51.5756382, "lon": 0.0904363, "tags": {"railway": "subway_entrance"}}, {"type": "node", "id": 10845780450, "lat": 51.5095095, "lon": -0.0267081}, {"type": "node", "id": 10845780451, "lat": 51.5094985, "lon": -0.0266783}, {"type": "node", "id": 10990368074, "lat": 51.4892445, "lon": -0.1336196, "tags": {"railway": "subway_entrance", "wheelchair": "no"}}, {"type": "node", "id": 11043578106, "lat": 51.5298886, "lon": -0.1239188, "tags": {"level": "0", "railway": "subway_entrance", "wheelchair": "no"}}, {"type": "node", "id": 11074639284, "lat": 51.510997, "lon": -0.0131055, "tags": {"level": "0", "railway": "subway_entrance", "wheelchair": "yes"}}, {"type": "node", "id": 11090072523, "lat": 51.507783, "lon": -0.0178482, "tags": {"level": "0", "railway": "subway_entrance", "wheelchair": "yes"}}, {"type": "node", "id": 11090072545, "lat": 51.5077785, "lon": -0.0178493, "tags": {"level": "1", "railway": "subway_entrance", "wheelchair": "yes"}}, {"type": "node", "id": 11109939627, "lat": 51.5032367, "lon": -0.01689, "tags": {"level": "0", "name": "Fosterito Entrance", "railway": "subway_entrance", "wheelchair": "no"}}, {"type": "node", "id": 11368893613, "lat": 51.5417604, "lon": -0.0025991, "tags": {"name": "Town centre", "railway": "subway_entrance"}}, {"type": "node", "id": 11752158564, "lat": 51.5587324, "lon": 0.2515533, "tags": {"railway": "subway_entrance"}}, {"type": "node", "id": 11926119620, "lat": 51.5103697, "lon": -0.1873504, "tags": {"railway": "subway_entrance"}}, {"type": "node", "id": 11930808158, "lat": 51.5166563, "lon": -0.1783121, "tags": {"railway": "subway_entrance"}}, {"type": "node", "id": 11930808159, "lat": 51.5161544, "lon": -0.1775838, "tags": {"railway": "subway_entrance"}}, {"type": "node", "id": 11951823643, "lat": 51.5036139, "lon": -0.0196776, "tags": {"level": "0", "name": "West Entrance", "railway": "subway_entrance"}}, {"type": "node", "id": 12046071820, "lat": 51.5408345, "lon": -0.0036906, "tags": {"name": "Gibbins Road", "railway": "subway_entrance", "wheelchair": "yes"}}, {"type": "node", "id": 12085209715, "lat": 51.517886, "lon": -0.2810596, "tags": {"access": "customers", "railway": "subway_entrance", "wheelchair": "yes"}}, {"type": "node", "id": 12108164536, "lat": 51.5412981, "lon": -0.0028936, "tags": {"railway": "subway_entrance"}}, {"type": "node", "id": 12193929800, "lat": 51.5163708, "lon": -0.1753888, "tags": {"level": "-2", "name": "Paddington Underground Station", "railway": "subway_entrance", "start_date": "2024-09-20", "wheelchair": "yes"}}, {"type": "node", "id": 12228208747, "lat": 51.5037688, "lon": -0.0857664, "tags": {"name": "St Thomas Street", "railway": "subway_entrance", "ref": "1"}}, {"type": "node", "id": 12228286469, "lat": 51.5050927, "lon": -0.0867266, "tags": {"level": "0", "name": "Joiner Street", "railway": "subway_entrance", "ref": "3"}}, {"type": "node", "id": 12228351762, "lat": 51.5058506, "lon": -0.0869949, "tags": {"railway": "subway_entrance", "ref": "A", "wheelchair": "no"}}, {"type": "node", "id": 12228351777, "lat": 51.5054542, "lon": -0.0866428, "tags": {"railway": "subway_entrance", "ref": "C"}}, {"type": "node", "id": 12246835590, "lat": 51.4912934, "lon": 0.1214086, "tags": {"railway": "subway_entrance", "wheelchair": "yes"}}, {"type": "node", "id": 12279370549, "lat": 51.506627, "lon": -0.1427125, "tags": {"highway": "elevator", "level": "-1;0", "railway": "subway_entrance", "ref": "A"}}, {"type": "node", "id": 12279370575, "lat": 51.5067634, "lon": -0.1424462, "tags": {"name": "Piccadilly (south side)", "railway": "subway_entrance"}}, {"type": "node", "id": 12286248187, "lat": 51.5180894, "lon": -0.0890132, "tags": {"railway": "subway_entrance"}}, {"type": "node", "id": 12292507855, "lat": 51.5083899, "lon": -0.124984, "tags": {"description": "Taxis", "name": "Charing Cross (Exit 3)", "railway": "subway_entrance", "ref": "3"}}, {"type": "node", "id": 12309653483, "lat": 51.5318449, "lon": -0.1269939, "tags": {"amenity": "ticket_validator", "barrier": "turnstile", "level": "0", "operator": "Thameslink", "railway": "subway_entrance", "wheelchair": "yes"}}, {"type": "node", "id": 12351134129, "lat": 51.6162252, "lon": -0.1334909, "tags": {"railway": "subway_entrance"}}, {"type": "node", "id": 12452989324, "lat": 51.5166076, "lon": -0.2474585, "tags": {"railway": "subway_entrance"}}, {"type": "node", "id": 12499239046, "lat": 51.5872693, "lon": -0.1645073, "tags": {"railway": "subway_entrance"}}, {"type": "node", "id": 12685757009, "lat": 51.5087952, "lon": 0.0719101, "tags": {"highway": "elevator", "railway": "subway_entrance", "wheelchair": "yes"}}, {"type": "node", "id": 12685757010, "lat": 51.5087937, "lon": 0.0717064, "tags": {"highway": "elevator", "railway": "subway_entrance", "wheelchair": "yes"}}, {"type": "node", "id": 12739915283, "lat": 51.4816234, "lon": -0.0107825, "tags": {"railway": "subway_entrance"}}, {"type": "node", "id": 12754166553, "lat": 51.5080307, "lon": -0.125045, "tags": {"name": "Charing Cross (Exit 4)", "railway": "subway_entrance", "ref": "4", "wheelchair": "no"}}, {"type": "node", "id": 12793161797, "lat": 51.5011543, "lon": -0.1237871, "tags": {"railway": "subway_entrance", "ref": "2"}}, {"type": "node", "id": 12809620030, "lat": 51.5080777, "lon": -0.0062884, "tags": {"level": "0", "railway": "subway_entrance"}}, {"type": "way", "id": 210409886, "nodes": [10845780450, 2204808512, 2204808509, 10845780451, 10845780450], "tags": {"building": "yes", "description": "Lift tower", "fixme": "Which side is the lift entrance? #surveyme", "railway": "subway_entrance"}}, {"type": "way", "id": 210409888, "nodes": [2204808493, 2204808487, 2204808483, 2204808490, 2204808493], "tags": {"building": "yes", "description": "Lift tower", "fixme": "Which side is the lift entrance? #surveyme", "railway": "subway_entrance"}}, {"type": "way", "id": 303377742, "nodes": [3077317658, 3077317659, 3077317660, 911189370, 8993761021, 3077317661, 3077317658], "tags": {"building": "train_station", "building:levels": "1", "fixme": "escalator and stairs should be centred in access building. (From GPS, building may be a little off true position.) Building should be joined with round building immediately to NE.", "level": "0", "name": "King's Cross St. Pancras Underground Station", "nohousenumber": "yes", "railway": "subway_entrance", "roof:shape": "flat", "wheelchair": "yes"}}]}